LIC_NAME,BLK_HOUSE,STR_NAME,UNIT_NO,POSTCODE,LIC_NO,INC_CRC,FMEL_UPD_D,latitude,longitude
LI LI CHENG SUPERMARKET (PUNGGOL) PTE. LTD.,273C,PUNGGOL PLACE,884,823273,NE12I65N000,3DE8AF6E76F9D3D4,2.01711E+13,1.402303006,103.9012624
SHENG SIONG SUPERMARKET PTE LTD,11,UPPER BOON KENG ROAD,901,380011,E73010V000,F361759A8261CD6E,2.01711E+13,1.314239371,103.870914
COLD STORAGE SINGAPORE (1983) PTE LTD,683,HOUGANG AVENUE 8,903,530683,NE11909C000,1DC69902E02077CE,2.01711E+13,1.373321217,103.8863655
COLD STORAGE SINGAPORE (1983) PTE LTD,631,BEDOK RESERVOIR ROAD,954,470631,S02210X000,4E2560154B58BA38,2.01711E+13,1.332958727,103.9149418
YES SUPERMARKET PTE LTD,201B,TAMPINES STREET 21,1091,522201,S02037J000,559A9A00D9FF8A55,2.01711E+13,1.353453156,103.9530099
SUZYAMEER FROZEN PTE. LTD.,201D,TAMPINES STREET 21,1161,524201,NE08357A000,1D32060098628881,2.01711E+13,1.352262313,103.9535865
G8 MART PTE. LTD.,421,ANG MO KIO AVENUE 10,1161,560421,CE13401C000,E83AE5A9842F67BC,2.01711E+13,1.365384216,103.852967
SHENG SIONG SUPERMARKET PTE LTD,233,ANG MO KIO AVENUE 3,1168,560233,CE04334P000,08D1E417EB224327,2.01711E+13,1.367549248,103.8367406
PRIME SUPERMARKET (1996) PTE LTD,106,HOUGANG AVENUE 1,1213,530106,S02059X000,3DA5C840D472C779,2.01711E+13,1.353702969,103.8906808
TAN KWEE ENG,327,YISHUN RING ROAD,1320,760327,B02041C000,FBB8A845FD8ADDC4,2.01711E+13,1.430071097,103.8423964
SHENG SIONG SUPERMARKET PTE LTD,122,ANG MO KIO AVENUE 3,1753,560122,B02015J000,DEC1603A9CDAA8B2,2.01711E+13,1.370188604,103.8434132
KAI SOON SUPERMARKET PTE. LTD.,780,YISHUN RING ROAD,3546,760780,W03223N000,97BC62A54004ABA9,2.01711E+13,1.42213865,103.8328827
COLD STORAGE SINGAPORE (1983) PTE LTD,41,SUNSET WAY,01A,597071,NW08141P000,5B36941E8637D978,2.01711E+13,1.323250401,103.7672601
THE FISHWIVES PTE. LTD.,501,BUKIT TIMAH ROAD,05B,259760,W02430L000,D1ABF0A07806E6A5,2.01711E+13,1.322573176,103.8142455
PRIME SUPERMARKET LIMITED,1,UPPER ALJUNIED LANE,1,360001,SE04040C000,348D2160A5640B99,2.01711E+13,1.334292414,103.8787462
ABEDIN TRADING PTE. LTD.,599,GEYLANG ROAD,1,389538,SE15464L000,527AE12639704BB5,2.01711E+13,1.314206549,103.8866998
COLD STORAGE SINGAPORE (1983) PTE LTD,5,STADIUM WALK,1,397693,SE07216L000,B63A248EF9D05582,2.01711E+13,1.302221781,103.8761527
COLD STORAGE SINGAPORE (1983) PTE LTD,238,THOMSON ROAD,28/29,307683,W02074L000,2CB5FB935C95714E,2.01711E+13,1.320211016,103.8436568
SONG FISH DEALER PTE LTD,17,PETIR ROAD,3,678278,NW17069X000,0F6D28052F81A605,2.01807E+13,1.378349714,103.7627412
THE SEAFOOD MARKET PLACE (BY SONG FISH) PTE. LTD.,676,WOODLANDS DRIVE 71,4,730676,NW18310J000,80FFC5863445363D,2.01807E+13,1.439916079,103.8007012
SHENG SIONG SUPERMARKET PTE LTD,1,JALAN BERSEH,22-Mar,209037,CE12096L000,0345D5333A79129B,2.0181E+13,1.307785101,103.857011
COLD STORAGE SINGAPORE (1983) PTE LTD,163,TANGLIN ROAD,3-Feb,247933,W02073N000,0F0E200CDB5F3678,2.0181E+13,1.304843445,103.8238528
BLUEWATER SEAFOOD PTE. LTD.,8D,DEMPSEY ROAD,1,249672,CE18D64L000,0A84C7734855DF0F,2.0181E+13,1.303445974,103.8093817
WONS BUTCHERY PTE. LTD.,1,ST. MARTIN'S DRIVE,1,257988,CE18G34E000,2A8AD7C49BB35393,2.0181E+13,1.305709706,103.8244638
LITTLE FARMS PTE. LTD.,3,LORONG LIPUT,4,277725,CE18I13C000,A887A4094F9E78C9,2.0181E+13,1.310643503,103.7952462
B & S MINI MART PTE. LTD.,310,GEYLANG ROAD,,389349,CE14Q85A000,4DFE6BEAE93CDC87,2.0181E+13,1.312451045,103.8796223
"CHEE MIN KUAN, SIMON",342,TANJONG KATONG ROAD,,437112,SE14965K000,7827732A1824519B,2.0181E+13,1.303733734,103.8964982
JSJ CORPORATION PTE. LTD.,31A,TANAH MERAH COAST ROAD,1,498720,SE17345J000,FDD2F7C14A0999CC,2.0181E+13,1.318452011,103.9858694
U STARS PTE. LTD.,625,ELIAS ROAD,302,510625,NE04092A000,5FF712EFFA4F8498,2.0181E+13,1.37860238,103.9419782
LOTTE MART PTE. LTD.,17,LORONG KILAT,2,598139,SW06806E000,84C132EF00F2782B,2.0181E+13,1.340826615,103.7742133
AJMAL TRADING GROUP PTE. LTD.,5,JALAN PAPAN,32,619396,SW16B52K000,93A2A674B553E67B,2.0181E+13,1.322108363,103.7274807
MURUGAN TRADERS PTE LTD,9,TRACTOR ROAD,,627970,SW18B79P000,F1EBC8EAFDAA9EF8,2.0181E+13,1.324919804,103.7050997
SHENG SIONG SUPERMARKET PTE LTD,440,BUKIT BATOK WEST AVENUE 8,10,650440,SW18A30L000,26B1BFE8EC40794E,2.0181E+13,1.355723076,103.7393031
SHENG SIONG SUPERMARKET PTE LTD,785E,WOODLANDS RISE,1,735785,NW18649C000,3C5B5E0FADC770CB,2.0181E+13,1.446804132,103.8054876
AJMAL TRADING GROUP PTE. LTD.,2,WOODLANDS SECTOR 2,5,737723,NW15489B000,50016EF55AB80A12,2.0181E+13,1.461525548,103.809439
SHENG SIONG SUPERMARKET PTE LTD,675,YISHUN AVENUE 4,10,760675,NW18478E000,30AE6E739E4C2175,2.0181E+13,1.420155503,103.8435589
PHAN NEE TRADING LLP,2B,YISHUN AVENUE 7,1,768929,NW08337X000,8B068D0211232A26,2.0181E+13,1.444341295,103.8390302
HAO MART PTE. LTD.,658,PUNGGOL EAST,1,820658,NE18667L000,EE65F5A79DDD5BAE,2.0181E+13,1.399904204,103.9193528
THE SEAFOOD MARKET PLACE (BY SONG FISH) PTE. LTD.,681,PUNGGOL DRIVE,9,820681,NE18529J000,CFB223AB2921E70E,2.0181E+13,1.402878451,103.9131957
COLD STORAGE SINGAPORE (1983) PTE LTD,525,ANG MO KIO AVENUE 10,2401,560525,S02169J000,8C89C07BAD44F7D8,2.01807E+13,1.372645695,103.8538907
PAN PACIFIC INTERNATIONAL HOLDINGS PTE. LTD.,100,TRAS STREET,5-Jan,79027,CE18A78X000,A560CDE4DE209D00,2.01807E+13,1.274588224,103.8434707
COLD STORAGE SINGAPORE (1983) PTE LTD,291,JOO CHIAT ROAD,1,427543,SE11505P000,2340EFD9FB6110BC,2.01807E+13,1.309822274,103.9022325
SHENG SIONG SUPERMARKET PTE LTD,660A,EDGEDALE PLAINS,1,821660,NE17700J000,1AB52643F941FA3A,2.01807E+13,1.402621965,103.9165196
VIVA CORP SERVICES PTE. LTD.,23,KAKI BUKIT ROAD 3,2,415812,NE14190K000,F9CBEC22DB1FB858,2.01807E+13,1.337338624,103.9037351
SWISS BUTCHERY (2013) PRIVATE LIMITED,30,GREENWOOD AVENUE,,289230,CE07705A000,C869661C01CC7122,2.01711E+13,1.331761099,103.8065869
ROSWELL ENTERPRISE PTE LTD,34,GREENWOOD AVENUE,,289236,B03078N000,1AC0DC1360B91602,2.01711E+13,1.331832408,103.8064924
T S J INDUSTRIAL (S) PTE. LTD.,48,TOH GUAN ROAD EAST,130,608586,SW14484J000,3A9EFB753F3C9DE9,2.01711E+13,1.336830974,103.7543414
COLD STORAGE SINGAPORE (1983) PTE LTD,80,MARINE PARADE ROAD,27/62,449269,E02196C000,8F1010F83432B78B,2.01711E+13,1.301191315,103.9051136
COLD STORAGE SINGAPORE (1983) PTE LTD,12,KALLANG AVENUE,47,339511,CE14G73B000,D7FC2498E326BABA,2.01711E+13,1.30974242,103.8641017
COLD STORAGE SINGAPORE (1983) PTE LTD,11,TANJONG KATONG ROAD,36,437157,SE14875L000,5373FE2CE9E8656B,2.01711E+13,1.314692141,103.8944805
COLD STORAGE SINGAPORE (1983) PTE LTD,154,WEST COAST ROAD,,127371,SW08807K000,50EDCA33BB1577BC,2.01711E+13,1.303582691,103.7652845
COLD STORAGE SINGAPORE (1983) PTE LTD,1,VISTA EXCHANGE GREEN,,138617,SW12J97L000,A0FE827922FA7CEA,2.01711E+13,1.306848827,103.7882145
FOODIE MARKET PLACE PTE. LTD.,225,OUTRAM ROAD,,169038,CE10I13B000,F07E9FCD9F10FF17,2.01711E+13,1.283450773,103.8353713
MUSTAFA HOLDINGS PTE LTD,147,SYED ALWI ROAD,,207706,W03142N000,774A8FF4716A0468,2.01711E+13,1.309752747,103.8557016
SUPERNATURE PTE LTD,583,ORCHARD ROAD,,238884,CE13539N000,1CBCEAA88F882DA8,2.01711E+13,1.306195799,103.828509
HUBER'S PTE. LTD.,22,DEMPSEY ROAD,,249679,CE15F60K000,806CEE3EA9FC3627,2.01711E+13,1.306792407,103.8101858
MEAT THE BUTCHER PTE. LTD.,615,BUKIT TIMAH ROAD,,269716,C00033N000,ED02CBDEA21A897A,2.01711E+13,1.32437351,103.8093579
YEO KENG GUAN,5,RIDGEWOOD CLOSE,,276696,C02052N000,12BAB587D1D0035D,2.01711E+13,1.316618983,103.7789473
COLD STORAGE SINGAPORE (1983) PTE LTD,293,HOLLAND ROAD,,278628,C02025V000,E3AE1F03B1EBFB54,2.01711E+13,1.317561968,103.7858406
COLD STORAGE SINGAPORE (1983) PTE LTD,20,GREENWOOD AVENUE,,289215,CE09685B000,E1A69FE0E5A1E4B6,2.01711E+13,1.331491472,103.8068093
COLD STORAGE SINGAPORE (1983) PTE LTD,291,YISHUN STREET 22,389/3,760291,NW04015N000,8914CCFB5EC74BBA,2.01807E+13,1.435760801,103.8367239
CHD @ SOON LEE PTE. LTD.,51,SOON LEE ROAD,51A,628088,SW08A55C000,BE1B6F516F25A541,2.01807E+13,1.332122901,103.6990703
SHENG SIONG SUPERMARKET PTE LTD,3,YUAN CHING ROAD,,618642,C02050X000,E6AE4186735FA316,2.01807E+13,1.325468084,103.7252215
MD SYDUR RAHMAN,13,TUAS SOUTH STREET 5,1,637555,SW08047V000,B4422DB91B36391B,2.01807E+13,1.295013686,103.6267293
7SEVEN PTE. LTD.,51,NORTH COAST AVENUE,3,756992,NW14561E000,12414EE8F62DE271,2.01802E+13,1.456059726,103.7864369
COLD STORAGE SINGAPORE (1983) PTE LTD,1,FUSIONOPOLIS WAY,3,138632,SW17E56V000,9E0F71EB5EF428DE,2.01802E+13,1.299294067,103.7874041
SHENG SIONG SUPERMARKET PTE LTD,105,CANBERRA STREET,5,750105,NW18021V000,3F32EA93C85A7792,2.01802E+13,1.448864021,103.8323929
U STARS PTE. LTD.,691,WOODLANDS DRIVE 73,6,730691,NW17990N000,556F179A4065EAA6,2.01802E+13,1.440629922,103.8061981
SHENG SIONG SUPERMARKET PTE LTD,338,ANCHORVALE CRESCENT,11,540338,CE17Q33A000,282C68222EDC4F50,2.01802E+13,1.399228566,103.8896539
SHENG SIONG SUPERMARKET PTE LTD,417,FERNVALE LINK,11,790417,CE17Q32B000,DB116D0680A58A14,2.01802E+13,1.391587041,103.8798725
BHANDARI INTERNATIONAL PTE. LTD.,280,WOODLANDS INDUSTRIAL PARK E5 (PART OF),47,757322,NW17277E000,754CC3104AD59F36,2.01802E+13,1.451325053,103.7910952
SHENG SIONG SUPERMARKET PTE LTD,4,WOODLANDS STREET 12,61,738623,NW17734V000,D150643A0053994F,2.01802E+13,1.433512534,103.7797469
WAN SIEW YOONG,4,SAGO LANE,103,50004,W02099P000,1559F07415BB5C46,2.01802E+13,1.281800625,103.8429082
HAO MART PTE. LTD.,17,JALAN TENTERAM,128,321017,CE17M26A000,B981FFC6E81C1DDE,2.01802E+13,1.328211695,103.8598126
MCP FAIRMART PTE LTD,BLK 371,BUKIT BATOK STREET 31,324,650371,J92067N000,3FE8C9104F3EC555,2.01802E+13,1.359259407,103.7506946
HAO MART PTE. LTD.,146,JALAN BUKIT MERAH,1074,160146,CE17M36X000,EF320255C834747A,2.01802E+13,1.277848769,103.8308115
PAN PACIFIC INTERNATIONAL HOLDINGS PTE. LTD.,181,ORCHARD ROAD,3-Jan,238896,CE17L45A000,5DFD558C714597C1,2.01802E+13,1.300838916,103.8394347
COLD STORAGE SINGAPORE (1983) PTE LTD,60,PAYA LEBAR ROAD,5-Jan,409051,SE14A83A000,74BC8EE7FCF50851,2.01802E+13,1.318675759,103.8925506
COLD STORAGE SINGAPORE (1983) PTE LTD,370,ALEXANDRA ROAD,7-Mar,159953,CE07569B000,28E3628D372CD284,2.01802E+13,1.288614691,103.80501
COLD STORAGE SINGAPORE (1983) PTE LTD,930,YISHUN AVENUE 2,7-Jun,769098,NW08314K000,CABE56043689DB83,2.01802E+13,1.429698482,103.8357765
COLD STORAGE SINGAPORE (1983) PTE LTD,205,HOUGANG STREET 21,133,530205,S02024X000,94714536A765270E,2.01711E+13,1.359496638,103.8850799
SHENG SIONG SUPERMARKET PTE LTD,720,CLEMENTI WEST STREET 2,144,120720,SW05051J000,762A0F132FD34AA8,2.01711E+13,1.302464092,103.763751
PRIME SUPERMARKET LIMITED,803,KING GEORGE'S AVENUE,154,200803,E02042P000,CEECC163A7FA68F8,2.01711E+13,1.308365268,103.8609128
PRIME SUPERMARKET LIMITED,823,TAMPINES STREET 81,160,520823,S02040X000,10B92B6613DF8B9A,2.01711E+13,1.348732841,103.9340102
COLD STORAGE SINGAPORE (1983) PTE LTD,829,TAMPINES STREET 81,284/8,520829,S02038E000,91161828AF70D176,2.01711E+13,1.349224188,103.9349125
COLD STORAGE SINGAPORE (1983) PTE LTD,1,WOODLANDS SQUARE,31/32,738099,NW11384E000,2B67CDF8281E5570,2.01711E+13,1.436007838,103.7856887
COLD STORAGE SINGAPORE (1983) PTE LTD,548,WOODLANDS DRIVE 44,37/38,730548,B02035A000,60AC85121B68CA94,2.01711E+13,1.430840066,103.7934163
LIN POH LING,212,LORONG 8 TOA PAYOH,43/45,310212,SE06616X000,76E66AB46212193A,2.01711E+13,1.340642933,103.8543345
COLD STORAGE SINGAPORE (1983) PTE LTD,23,SERANGOON CENTRAL,44/45,556083,SE10579K000,9C08ADA027E53A95,2.01711E+13,1.350675514,103.8718616
COLD STORAGE SINGAPORE (1983) PTE LTD,230,VICTORIA STREET,16,188024,W02075K000,DF55DA57EF4B2A65,2.01711E+13,1.300142483,103.855787
NAWAS GLOBAL PTE. LTD.,3,TUAS SOUTH STREET 12,16,636947,SW16224E000,6F98C1177D0D74D7,2.01711E+13,1.271642263,103.6335123
SADIA MINIMART PTE LTD,11,MANDAI ESTATE,16,729908,NW15751L000,750AE5291894E1D8,2.01711E+13,1.408529966,103.7594062
MEIDI-YA SINGAPORE CO (PTE) LTD,177,RIVER VALLEY ROAD,17,179030,W02094C000,444173284C175C3F,2.01711E+13,1.291514786,103.8445863
IROHA INTERNATIONAL PTE. LTD.,68,ORCHARD ROAD,17,238839,CE16I13V000,79227FDE25FAC522,2.01711E+13,1.300747562,103.8450476
COLD STORAGE SINGAPORE (1983) PTE LTD,81,CLEMENCEAU AVENUE,18,239917,W02096A000,EA11CC1357BF0A8E,2.01711E+13,1.292259589,103.842561
LITTLE FARMS PTE. LTD.,491,RIVER VALLEY ROAD,20,248371,CE05380X000,ABBD171C72E40590,2.01711E+13,1.293017861,103.8269408
SHENG SIONG SUPERMARKET PTE LTD,61,TEBAN GARDENS ROAD,21,600061,C02080E000,1CABEB87703EAA76,2.01711E+13,1.322136363,103.7382928
PHAN NEE INVESTMENTS (S) PTE LTD,500,OLD CHOA CHU KANG ROAD,21,698924,SW16E98J000,748227E4D6EA7F36,2.01711E+13,1.377610839,103.7184038
COLD STORAGE SINGAPORE (1983) PTE LTD,430,UPPER CHANGI ROAD,47,487048,SE14377P000,4FA16B3D7A26B199,2.01711E+13,1.331775817,103.9462012
RAW MARKET PTE. LTD.,11,PASIR RIS LINK,48,518180,NE15760A000,24BE17B4638FC989,2.01711E+13,1.375588308,103.9608397
THE BUTCHER (SINGAPORE) PTE. LTD.,44,JALAN MERAH SAGA,50,278116,B03074A000,BD1045305A91116B,2.01711E+13,1.311921956,103.796844
HAO MART PTE. LTD.,239,YISHUN RING ROAD,1150,760239,B85098V000,3280E632A64A7C13,2.01807E+13,1.433595142,103.8396854
SEOUL BUTCHERY PTE. LTD.,13,YUK TONG AVENUE,,596318,SW18715E000,543410C59C75B3F4,2.01807E+13,1.342074963,103.7746328
V SURESH KUMAR,51,ADMIRALTY ROAD WEST - LODGE 1,,757443,NW12H40C000,A943479A145BB3F9,2.01807E+13,1.459828174,103.8200734
COLD STORAGE SINGAPORE (1983) PTE LTD,200,TURF CLUB ROAD,,287994,W02140C000,F5D07D3E3FBEC23E,2.01807E+13,1.338994622,103.7931338
HAO MART PTE. LTD.,448/450,GEYLANG ROAD,,389407,SE18184V000,E55DB2F74B8E0811,2.01807E+13,1.313175097,103.8836467
COLD STORAGE SINGAPORE (1983) PTE LTD,290,ORCHARD ROAD,14/15,238859,W02070V000,8DB4EB06E8BA7AD1,2.01711E+13,1.303723224,103.8352403
COLD STORAGE SINGAPORE (1983) PTE LTD,5,STRAITS VIEW,15/16,18935,CE17J36N000,991B4FCD2D19C3BB,2.01711E+13,1.27737236,103.8528448
COLD STORAGE SINGAPORE (1983) PTE LTD,68,ORCHARD ROAD,15/16,238839,W02088A000,79227FDEDF316E6A,2.01711E+13,1.300747562,103.8450476
COLD STORAGE SINGAPORE (1983) PTE LTD,1,KIM SENG PROMENADE,18/19,237994,W02068J000,4E6DAE686794402B,2.01711E+13,1.293802361,103.8317579
POPULAR SUPERMARKET PTE LTD,12,TUAS SOUTH STREET 13,18/19,636937,SW16942C000,D3420F308AFB7FBE,2.01711E+13,1.270309784,103.6341639
SADIA SUPERMARKET & TRADING (S) PTE. LTD.,12,TUAS SOUTH STREET 13,20/21,636937,SW16901A000,D3420F303C9A8A34,2.01711E+13,1.270309784,103.6341639
COLD STORAGE SINGAPORE (1983) PTE LTD,31,OCEAN WAY,26/27,98375,SW12N25V000,645F098FE4381FAE,2.01711E+13,1.247758619,103.8419211
COLD STORAGE SINGAPORE (1983) PTE LTD,383,BUKIT TIMAH ROAD,09A,259727,CE10B87J000,1E3FB9185A1D6307,2.01711E+13,1.319436175,103.8273459
COLD STORAGE SINGAPORE (1983) PTE LTD,524A,JELAPANG ROAD,13/18,671524,B02011P000,B0E158DA328C5436,2.01711E+13,1.385295562,103.7661705
COLD STORAGE SINGAPORE (1983) PTE LTD,512,BISHAN STREET 13,524,570512,CE09512V000,EF649DA0A8311BEA,2.01711E+13,1.349622344,103.8498817
NTUC FAIRPRICE CO-OPERATIVE LTD,192,LORONG 4 TOA PAYOH,672,310192,S02051L000,BA393865D9429B41,2.01901E+13,1.331661834,103.850483
NTUC FAIRPRICE CO-OPERATIVE LTD,475,TAMPINES STREET 44,145,520475,S02052K000,9018E3DE81D128D1,2.01901E+13,1.360323317,103.953126
NTUC FAIRPRICE CO-OPERATIVE LTD,107,TAMPINES STREET 11,353/9,521107,S02053J000,26741892D38D0A04,2.01901E+13,1.348371048,103.9481289
NTUC FAIRPRICE CO-OPERATIVE LTD,11,RIVERVALE CRESCENT,1,545082,S02054E000,67F93295E5A48722,2.01901E+13,1.392197774,103.9044716
NTUC FAIRPRICE CO-OPERATIVE LTD,118,RIVERVALE DRIVE,8,540118,S02055C000,79B5F430300EF1B5,2.01901E+13,1.384932017,103.901558
NTUC FAIRPRICE CO-OPERATIVE LTD,301,UPPER THOMSON ROAD,25,574408,S02056B000,1A6B6A0A96F41CFD,2.01901E+13,1.354669019,103.8309198
NTUC FAIRPRICE CO-OPERATIVE LTD,500,LORONG 6 TOA PAYOH,,310500,S02103A000,A5C9705C273748FD,2.01901E+13,1.332965494,103.8470504
NTUC FAIRPRICE CO-OPERATIVE LTD,110,LENGKONG TIGA,233/5,410110,S91085V000,700C0F2E35957CEA,2.01901E+13,1.323976884,103.9106897
NTUC FAIRPRICE CO-OPERATIVE LTD,279,BISHAN STREET 24,62/64,570279,S94081C000,BA6EA24E581F55D2,2.01901E+13,1.357222824,103.8437853
NTUC FAIRPRICE CO-OPERATIVE LTD,734,PASIR RIS STREET 72,37,510734,S98084K000,B2A48B8DDF299D93,2.01901E+13,1.379767536,103.9362076
NTUC FAIRPRICE CO-OPERATIVE LTD,2,JOO CHIAT ROAD,1139,420002,SE04012L000,A54DA254F5F99AFB,2.01901E+13,1.315539647,103.8987649
NTUC FAIRPRICE CO-OPERATIVE LTD,41,JALAN TIGA,5,390041,SE04130B000,93EC66CC6F37312F,2.01901E+13,1.307827372,103.8847639
NTUC FAIRPRICE CO-OPERATIVE LTD,65,AIRPORT BOULEVARD,10,819663,SE07559P000,B00E2FE630585015,2.01901E+13,1.354370738,103.9851696
NTUC FAIRPRICE CO-OPERATIVE LTD,5,EUNOS CRESCENT,2619,400005,SE09706N000,B7F681A9F638088F,2.01901E+13,1.321189796,103.9032663
NTUC FAIRPRICE CO-OPERATIVE LTD,23,SERANGOON CENTRAL,42,556083,SE10564B000,9C08ADA0824D1D7A,2.01901E+13,1.350675514,103.8718616
NTUC FAIRPRICE CO-OPERATIVE LTD,89,BEDOK NORTH STREET 4,77/79,460089,SE11071C000,47C2F906FB4A8869,2.01901E+13,1.33233468,103.9380513
NTUC FAIRPRICE CO-OPERATIVE LTD,612-620,GEYLANG ROAD,,389551,SE11577E000,D12B7744F9A097B3,2.01901E+13,1.314149968,103.8885449
NTUC FAIRPRICE CO-OPERATIVE LTD,5,CHANGI BUSINESS PARK CENTRAL 1,11-Aug,486038,SE11947P000,5B8B133D441E3A0A,2.01901E+13,1.334325154,103.9623893
NTUC FAIRPRICE CO-OPERATIVE LTD,8,CHANGI BUSINESS PARK AVENUE 1,,486018,SE12G19X000,173987F2420DE201,2.01901E+13,1.334919774,103.9636539
NTUC FAIRPRICE CO-OPERATIVE LTD,311,NEW UPPER CHANGI ROAD,60,467360,SE13135L000,BA23392A3AA4C5D9,2.01901E+13,1.324772079,103.9292677
NTUC FAIRPRICE CO-OPERATIVE LTD,57,NEW UPPER CHANGI ROAD,1334,461057,SE13S71X000,BF75AB36E33F82E0,2.01901E+13,1.32424555,103.9415687
NTUC FAIRPRICE CO-OPERATIVE LTD,60,AIRPORT BOULEVARD,29,819643,SE13U39E000,C0ECA33ED08ABFAE,2.01901E+13,1.355190944,103.988751
NTUC FAIRPRICE CO-OPERATIVE LTD,30,EAST COAST ROAD,9-Jun,428751,SE13U91V000,915404DD609FDB06,2.01901E+13,1.303850308,103.9028504
NTUC FAIRPRICE CO-OPERATIVE LTD,6,POTONG PASIR AVENUE 2,1,358361,SE14441L000,3D99EC241C2C20EF,2.01901E+13,1.332535908,103.8670368
NTUC FAIRPRICE CO-OPERATIVE LTD,1,STADIUM PLACE,29,397628,SE14467N000,9A762656DA66BDBE,2.01901E+13,1.303843278,103.8727507
NTUC FAIRPRICE CO-OPERATIVE LTD,3,SIMEI STREET 6,1,528833,SE14775X000,72D4FFF12CCE16D9,2.01901E+13,1.342706189,103.9530245
NTUC FAIRPRICE CO-OPERATIVE LTD,401,MACPHERSON ROAD,22/29,368125,SE16122V000,8636C035C8D92C78,2.01901E+13,1.33177055,103.8792945
NTUC FAIRPRICE CO-OPERATIVE LTD,18,TAI SENG STREET,13,539775,SE17082P000,97B865E2E4C0509D,2.01901E+13,1.336538677,103.8887627
NTUC FAIRPRICE CO-OPERATIVE LTD,10,EUNOS ROAD 8,101,408600,SE17481P000,B03AE698B7AEC878,2.01901E+13,1.318869412,103.8947314
JMD RETAIL PTE. LTD.,330,TANJONG KATONG ROAD,,437106,SE18544L000,E466075B010BA0B3,2.01901E+13,1.304164472,103.896327
NTUC FAIRPRICE CO-OPERATIVE LTD,108,DEPOT ROAD,1,100108,SW04158X000,53334C1CA869F4BD,2.01901E+13,1.281122279,103.8100313
COLD STORAGE SINGAPORE (1983) PTE LTD,1,HARBOURFRONT WALK,23,98585,SW06590A000,B44F385131EF94AD,2.01901E+13,1.26389582,103.8215893
NTUC FAIRPRICE CO-OPERATIVE LTD,28,DOVER CRESCENT,83,130028,SW07481A000,C2D30D6A61C98791,2.01901E+13,1.304763573,103.7816972
NTUC FAIRPRICE CO-OPERATIVE LTD,140,TECK WHYE LANE,351,680140,SW08821N000,1012E7DDBD421739,2.01901E+13,1.380030578,103.7531184
NTUC FAIRPRICE CO-OPERATIVE LTD,63,JURONG WEST CENTRAL 3,,648331,SW08A59X000,F84D5621D7F59F0F,2.01901E+13,1.339315039,103.705351
NTUC FAIRPRICE CO-OPERATIVE LTD,21,CHOA CHU KANG NORTH 6,7-Jan,689578,SW09032C000,D2D1D58DFEF0EDA7,2.01901E+13,1.3973019,103.7465581
NTUC FAIRPRICE CO-OPERATIVE LTD,61,CHOA CHU KANG DRIVE,1,689715,SW09285K000,FDB6807BE8EE6429,2.01901E+13,1.397128857,103.7473297
LAMIAH ENTERPRISE PTE. LTD.,5,TECH PARK CRESCENT,2,638127,SW09752V000,699B1F39DA240940,2.01901E+13,1.311467847,103.6303401
NTUC FAIRPRICE CO-OPERATIVE LTD,3155,COMMONWEALTH AVENUE WEST,,129588,SW10A16E000,644570985CDF911C,2.01901E+13,1.314853226,103.7642482
NTUC FAIRPRICE CO-OPERATIVE LTD,78A,TELOK BLANGAH STREET 32,1,101078,SW11452C000,B163FC1A7F3CF0FB,2.01901E+13,1.27338253,103.8089348
NTUC FAIRPRICE CO-OPERATIVE LTD,460,ALEXANDRA ROAD,,119963,SW11A26P000,33F754B4DFB6E088,2.01901E+13,1.27367658,103.801127
NTUC FAIRPRICE CO-OPERATIVE LTD,2,JURONG EAST CENTRAL 1,12,609731,SW12C98J000,D3E25B1CE998209D,2.01901E+13,1.333268182,103.7401767
NTUC FAIRPRICE CO-OPERATIVE LTD,352,CLEMENTI AVENUE 2,141,120352,SW12F58E000,562A45954C098582,2.01901E+13,1.314278609,103.7713506
NTUC FAIRPRICE CO-OPERATIVE LTD,498,JURONG WEST STREET 41,,640498,SW12H20A000,E2CA10A4AA0467CC,2.01901E+13,1.348333349,103.7243073
NTUC FAIRPRICE CO-OPERATIVE LTD,502,WEST COAST DRIVE,41,120502,SW12O05A000,4455CEE928BD0F3E,2.01901E+13,1.311885961,103.7590809
NTUC FAIRPRICE CO-OPERATIVE LTD,1,LOWER KENT RIDGE ROAD,16,119082,SW13245V000,BE502BB90FDBD6E2,2.01901E+13,1.292774327,103.784084
NTUC FAIRPRICE CO-OPERATIVE LTD,280,BUKIT BATOK EAST AVENUE 3,315,650280,SW13Q24X000,32C4A6B5B680E026,2.01901E+13,1.347701478,103.7570446
NTUC FAIRPRICE CO-OPERATIVE LTD,50,JURONG GATEWAY ROAD,21/22,608549,SW13T12J000,469AAB3D4F6721E5,2.01901E+13,1.333200217,103.7431704
NTUC FAIRPRICE CO-OPERATIVE LTD,2,BUKIT BATOK WEST AVENUE 7,10,659003,SW14633X000,4075A5C97BF74FD4,2.01901E+13,1.366506981,103.7468471
SHINVA AGRO FOODS PTE. LTD.,11,TECH PARK CRESCENT,3,638121,SW14824J000,D901156F86966DDE,2.01901E+13,1.311002403,103.6315723
NTUC FAIRPRICE CO-OPERATIVE LTD,1,JOO KOON CIRCLE,21,629117,SW14951X000,F1D64DC8D496ACF9,2.01901E+13,1.324606651,103.6780964
SHINVA AGRO FOODS PTE. LTD.,115,TUAS VIEW WALK 1,,637734,SW14B28C000,A9DE0AD466C95728,2.01901E+13,1.300911466,103.6277889
NTUC FAIRPRICE CO-OPERATIVE LTD,533,CHOA CHU KANG STREET 51,11,680533,SW15796X000,A16EBC8EBD498EA6,2.01901E+13,1.392073879,103.7430996
NTUC FAIRPRICE CO-OPERATIVE LTD,37,TEBAN GARDENS ROAD,,600037,SW15968N000,53A4EFCFCC3D4DFA,2.01901E+13,1.320520272,103.7426515
PHAN NEE INVESTMENTS (S) PTE LTD,500,OLD CHOA CHU KANG ROAD,2,698928,SW16815P000,BAD7F5812CF75584,2.01901E+13,1.371932805,103.7208574
NTUC FAIRPRICE CO-OPERATIVE LTD,249,JURONG EAST STREET 24,106,600249,SW16D83E000,9AC5B4E2A87A7A6E,2.01901E+13,1.342591042,103.7391995
THE QUALITYMART DEPOT PTE. LTD.,180,DEPOT ROAD,4,109684,SW18581V000,CF9C4895C171420F,2.01901E+13,1.282201364,103.8030238
COLD STORAGE SINGAPORE (1983) PTE LTD,35,STUDENTS WALK,,639548,SW18A40J000,6CF840C05D0A7F10,2.01901E+13,1.348133785,103.6854185
SHENG SIONG SUPERMARKET PTE LTD,451,BUKIT BATOK WEST AVENUE 6,10,650451,SW18F69X000,3A6DBDBC1432AB52,2.01901E+13,1.353038247,103.7439484
HONESTBEE PTE. LTD.,34,BOON LEAT TERRACE,,119866,SW18G66X000,DE2257E6D124282F,2.01901E+13,1.276045195,103.7971873
NTUC FAIRPRICE CO-OPERATIVE LTD,302,TIONG BAHRU ROAD,1,168732,W02072P000,C55DEE69E7AAF209,2.01901E+13,1.286463457,103.8269351
NTUC FAIRPRICE CO-OPERATIVE LTD,166,BUKIT MERAH CENTRAL,3527,150166,W02083K000,4BE5C143A910D3C6,2.01901E+13,1.283119503,103.8176429
NTUC FAIRPRICE CO-OPERATIVE LTD,360,BALESTIER ROAD,0,329783,W02084J000,7DE69C15A72F9F33,2.01901E+13,1.325126533,103.8510556
NTUC FAIRPRICE CO-OPERATIVE LTD,50,HAVELOCK ROAD,755,160050,W02086C000,EDD106F54293EF96,2.01901E+13,1.28977814,103.8267938
NTUC FAIRPRICE CO-OPERATIVE LTD,5,TANJONG PAGAR PLAZA,1,81005,W02092J000,FECB787EB52CC718,2.01901E+13,1.27624053,103.8430061
NTUC FAIRPRICE CO-OPERATIVE LTD,131,KILLINEY ROAD,"01,02",239571,W02239E000,167A1DC3F2F1FBE8,2.01901E+13,1.29727532,103.8385339
NTUC FAIRPRICE CO-OPERATIVE LTD,1,JELEBU ROAD,15,677743,B02020N000,E3FC0A790D9DA49D,2.01901E+13,1.380542441,103.763994
NTUC FAIRPRICE CO-OPERATIVE LTD,30,SEMBAWANG DRIVE,3-Jan,757713,B02021L000,50949CAD1F658572,2.01901E+13,1.44822653,103.8194621
NTUC FAIRPRICE CO-OPERATIVE LTD,71,WOODLANDS AVENUE 3,1,739044,B02022K000,F1DA7D4DC4AA14B7,2.01901E+13,1.432626029,103.7740512
NTUC FAIRPRICE CO-OPERATIVE LTD,888,WOODLANDS DRIVE 50,757,730888,B02024E000,A76A3FA3060EE880,2.01901E+13,1.437556564,103.7951364
NTUC FAIRPRICE CO-OPERATIVE LTD,414,YISHUN RING ROAD,1853,760414,B02025C000,DB8BB7E530A7811F,2.01901E+13,1.424528481,103.8465956
NTUC FAIRPRICE CO-OPERATIVE LTD,30,WOODLANDS AVENUE 1,,739065,B02034B000,AC5343DCF943E46A,2.01901E+13,1.429194683,103.7811369
NTUC FAIRPRICE CO-OPERATIVE LTD,301,YISHUN AVENUE 2,2,769093,B02093B000,8E1D41DB11B8825E,2.01901E+13,1.429525221,103.8349951
NTUC FAIRPRICE CO-OPERATIVE LTD,849,YISHUN RING ROAD,3703,760849,B02099L000,B35ACF8E2815B407,2.01901E+13,1.416983156,103.8352182
NTUC FAIRPRICE CO-OPERATIVE LTD,628,SENJA ROAD,1,670628,B03099C000,1330E9CA8B3A45B7,2.01901E+13,1.385096015,103.7602184
NTUC FAIRPRICE CO-OPERATIVE LTD,215,ANG MO KIO AVENUE 1,877,560215,B98014C000,D513E0661525BF90,2.01901E+13,1.366558299,103.8416241
NTUC FAIRPRICE CO-OPERATIVE LTD,1,ORCHID CLUB ROAD,34,769162,B99041L000,F90120CBD2BCBA51,2.01901E+13,1.411035981,103.8440399
NTUC FAIRPRICE CO-OPERATIVE LTD,587,BUKIT TIMAH ROAD,,269707,C02034X000,AC7575B726B5FFD7,2.01901E+13,1.323835127,103.8099996
NTUC FAIRPRICE CO-OPERATIVE LTD,451,CLEMENTI AVENUE 3,307,120451,C02035P000,EFB6758D47B36C67,2.01901E+13,1.312482993,103.7654768
NTUC FAIRPRICE CO-OPERATIVE LTD,1,JALAN ANAK BUKIT,1,588996,C02036N000,E5E781D6EA88B7A6,2.01901E+13,1.338656771,103.7785605
NTUC FAIRPRICE CO-OPERATIVE LTD,135,JURONG EAST STREET 13,337,600135,C02037L000,6D7812A1351B491B,2.01901E+13,1.333753433,103.7393714
NTUC FAIRPRICE CO-OPERATIVE LTD,1,JURONG WEST CENTRAL 2,9,648886,C02038K000,CB59096738AA19D4,2.01901E+13,1.339830148,103.7064609
NTUC FAIRPRICE CO-OPERATIVE LTD,63/66,YUNG KUANG ROAD,,610063,C02040A000,86615D3A14841744,2.01901E+13,1.332059376,103.7224529
NTUC FAIRPRICE CO-OPERATIVE LTD,399,YUNG SHENG ROAD,,610399,C02041V000,D5B771676FE02444,2.01901E+13,1.335042019,103.720268
NTUC FAIRPRICE CO-OPERATIVE LTD,166,BUKIT BATOK WEST AVENUE 8,,650166,C02053L000,FD7B034D6FAD7B21,2.01901E+13,1.347162359,103.7428079
NTUC FAIRPRICE CO-OPERATIVE LTD,10,BUKIT BATOK CENTRAL,8,659958,C02104B000,7229CB311386809E,2.01901E+13,1.348710801,103.7493345
NTUC FAIRPRICE CO-OPERATIVE LTD,BLK 345,JURONG EAST STREET 31,29,600345,C85274C000,E708205620B9F225,2.01901E+13,1.3455121,103.7312191
NTUC FAIRPRICE CO-OPERATIVE LTD,57,DAWSON ROAD,1,142057,CE04086K000,07108C84A74C8A7C,2.01901E+13,1.292703398,103.810959
SHENG SIONG SUPERMARKET PTE LTD,19,SERANGOON NORTH AVENUE 5,2-Jan,554913,CE04561V000,1D54775F11935375,2.01901E+13,1.375635002,103.8719964
NTUC FAIRPRICE CO-OPERATIVE LTD,71,KALLANG BAHRU,531,330071,CE05295K000,DBA039A142EA9994,2.01901E+13,1.32099295,103.87039
NTUC FAIRPRICE CO-OPERATIVE LTD,1,JALAN BUKIT MERAH,4500,150001,CE05487V000,B1D48DC85DA7AD12,2.01901E+13,1.286453544,103.8082424
NTUC FAIRPRICE CO-OPERATIVE LTD,491,RIVER VALLEY ROAD,14,248371,CE06044N000,ABBD171C982AD017,2.01901E+13,1.293017861,103.8269408
NTUC FAIRPRICE CO-OPERATIVE LTD,10,SINARAN DRIVE,47/48,307506,CE06L48L000,3FF83B006AE67CA8,2.01901E+13,1.320429679,103.8438921
NTUC FAIRPRICE CO-OPERATIVE LTD,53,ANG MO KIO AVENUE 3,40,569933,CE06M36N000,48276C87BC805392,2.01901E+13,1.369248907,103.8483992
NTUC FAIRPRICE CO-OPERATIVE LTD,43,CAMBRIDGE ROAD,15,210043,CE07320C000,82A43E54FB4A0EA8,2.01901E+13,1.315363034,103.8494345
NTUC FAIRPRICE CO-OPERATIVE LTD,5,UPPER BOON KENG ROAD,5,380005,CE07D83B000,0E191075531C649A,2.01901E+13,1.312654501,103.8725418
NTUC FAIRPRICE CO-OPERATIVE LTD,18 /20,KIM TIAN ROAD,,169252,CE08015J000,FC426D36D4075C0D,2.01901E+13,1.284807346,103.829298
NTUC FAIRPRICE CO-OPERATIVE LTD,80,LORONG LIMAU,191,320080,CE08H32N000,89940D98FCE45C3E,2.01901E+13,1.323796079,103.8556706
NTUC FAIRPRICE CO-OPERATIVE LTD,180,KITCHENER ROAD,10-Sep,208539,CE09H10X000,1D075CE9A085D43E,2.01901E+13,1.311393494,103.8564871
NTUC FAIRPRICE CO-OPERATIVE LTD,150,SILAT AVENUE,44,160150,CE11F41C000,517F93EED9F80703,2.01901E+13,1.277077076,103.8314259
"JEWISH WELFARE BOARD, SINGAPORE, THE",24,WATERLOO STREET,1,187950,CE11H82X000,F23B8179A152C849,2.01901E+13,1.298273289,103.8505995
NTUC FAIRPRICE CO-OPERATIVE LTD,6,SCOTTS ROAD,,228209,CE11M39P000,77462D6E4FE0417D,2.01901E+13,1.305855835,103.8329844
NTUC FAIRPRICE CO-OPERATIVE LTD,712,ANG MO KIO AVENUE 6,4056,560712,CE11N90C000,F8BD1A0C6F5C2F81,2.01901E+13,1.371409205,103.8470829
NTUC FAIRPRICE CO-OPERATIVE LTD,100,TRAS STREET,1,79027,CE12H50C000,A560CDE425D02E85,2.01901E+13,1.274588224,103.8434707
NTUC FAIRPRICE CO-OPERATIVE LTD,20,AH HOOD ROAD,1,329984,CE13O90C000,6EC34C40B1C041F2,2.01901E+13,1.327084859,103.8464765
NTUC FAIRPRICE CO-OPERATIVE LTD,447A,JALAN KAYU,2,791447,CE13R25C000,9C98A7B3A62B0E57,2.01901E+13,1.392138284,103.8724906
COLD STORAGE SINGAPORE (1983) PTE LTD,3,TEMASEK BOULEVARD,,38983,CE13Z03L000,707D40088A6F5927,2.01901E+13,1.294879051,103.8576755
NTUC FAIRPRICE CO-OPERATIVE LTD,808,FRENCH ROAD,1,200808,CE13Z98K000,B0046E59432ED08F,2.01901E+13,1.308806095,103.861312
COLD STORAGE SINGAPORE (1983) PTE LTD,16,ENGGOR STREET,,79717,CE14G71E000,68F945CC05F689F1,2.01901E+13,1.274617942,103.8443196
NTUC FAIRPRICE CO-OPERATIVE LTD,33,SENGKANG WEST AVENUE,24,797653,CE14L50J000,63E9C290729A8097,2.01901E+13,1.391393057,103.8760677
NTUC FAIRPRICE CO-OPERATIVE LTD,279,SENGKANG EAST AVENUE,6,540279,CE15695V000,3AFDC56CA244253F,2.01901E+13,1.386218353,103.8929955
NTUC FAIRPRICE CO-OPERATIVE LTD,20,LENGKOK BAHRU,13,159053,CE15G35E000,367B3DC566C976CD,2.01901E+13,1.286680272,103.8137663
NTUC FAIRPRICE CO-OPERATIVE LTD,574,ANG MO KIO AVENUE 10,1847,560574,CE16K18V000,1E35E0C46465FD7B,2.01901E+13,1.370894561,103.8563965
NTUC FAIRPRICE CO-OPERATIVE LTD,410A,SIN MING AVENUE,2,571410,CE17E43B000,A8542902A6D01A49,2.01901E+13,1.363215861,103.8354454
NTUC FAIRPRICE CO-OPERATIVE LTD,30,BENDEMEER ROAD,871,330030,CE17K55B000,A278D9A9C68882B7,2.01901E+13,1.319093442,103.8639053
NTUC FAIRPRICE CO-OPERATIVE LTD,95,LORONG 4 TOA PAYOH,68,310095,CE17L02A000,3FAE712FCD9D09BB,2.01901E+13,1.33889072,103.8489933
SF (313) PTE. LTD.,3,TEMASEK BOULEVARD,616,38983,CE17P14L000,707D4008373C1FB0,2.01901E+13,1.294879051,103.8576755
YOUR GROCER PRIVATE LIMITED,34,JALAN BUKIT HO SWEE,870,160034,CE18R71X000,2185484A7816B459,2.01901E+13,1.288076883,103.8270813
COLD STORAGE SINGAPORE (1983) PTE LTD,8A,MARINA BOULEVARD,44-50,18984,CE18T11J000,64A2013F18D25FEE,2.01901E+13,1.280227686,103.8533493
PAN PACIFIC INTERNATIONAL HOLDINGS PTE. LTD.,180,KITCHENER ROAD,6,208539,CE18T88K000,1D075CE9DF75DFC9,2.01901E+13,1.311393494,103.8564871
NTUC FAIRPRICE CO-OPERATIVE LTD,114,ALJUNIED AVENUE 2,75,380114,E02034P000,618DDF0CC172A358,2.01901E+13,1.321766446,103.8866728
NTUC FAIRPRICE CO-OPERATIVE LTD,212,BEDOK NORTH STREET 1,147,460212,E02035N000,FBB76B059C1D994A,2.01901E+13,1.325940697,103.93164
NTUC FAIRPRICE CO-OPERATIVE LTD,152B,SERANGOON NORTH AVENUE 1,384,552152,E02039E000,2ED98545865DE1C7,2.01901E+13,1.369799402,103.8730358
NTUC FAIRPRICE CO-OPERATIVE LTD,6,MARINE PARADE CENTRAL,,449411,E02096K000,B5259E55782463A5,2.01901E+13,1.301419557,103.9071127
NTUC FAIRPRICE CO-OPERATIVE LTD,934,EAST COAST ROAD,,459125,E83157K000,AC99C8F975864BA2,2.01901E+13,1.312307528,103.9252345
NTUC FAIRPRICE CO-OPERATIVE LTD,77,CIRCUIT ROAD,464/6,370077,E95315V000,D8DDD1364FF2F745,2.01901E+13,1.328556569,103.8853499
NTUC FAIRPRICE CO-OPERATIVE LTD,239/255,EAST COAST ROAD,,428932,E98161V000,96F10AFEB22C27BF,2.01901E+13,1.308361652,103.9079888
NTUC FAIRPRICE CO-OPERATIVE LTD,221,BOON LAY PLACE,200,640221,J02013A000,C5D382FA8A46B194,2.01901E+13,1.346348193,103.7124293
NTUC FAIRPRICE CO-OPERATIVE LTD,21,CHOA CHU KANG AVENUE 4,3,689812,J96145K000,4D9DA5784F87535E,2.01901E+13,1.385068363,103.7449504
NTUC FAIRPRICE CO-OPERATIVE LTD,138,TAMPINES STREET 11,136,521138,NE04047K000,6558AF793E6021B8,2.01901E+13,1.345281442,103.9453443
NTUC FAIRPRICE CO-OPERATIVE LTD,168,PUNGGOL FIELD,1,820168,NE04107V000,94829DCFB889E7AD,2.01901E+13,1.394184095,103.9129764
NTUC FAIRPRICE CO-OPERATIVE LTD,866A,TAMPINES STREET 83,1,521866,NE04114A000,EFDB60DE518B215C,2.01901E+13,1.355421763,103.9343152
NTUC FAIRPRICE CO-OPERATIVE LTD,1,PASIR RIS CLOSE,127,519599,NE08058P000,2D3F74CA49205874,2.01901E+13,1.377140734,103.9535991
NTUC FAIRPRICE CO-OPERATIVE LTD,BLK 277C,COMPASSVALE LINK,13,543277,NE08150C000,6D3BDFC26E5A4AB2,2.01901E+13,1.38233698,103.8936078
COLD STORAGE SINGAPORE (1983) PTE LTD,10,TAMPINES CENTRAL 1,2-Jan,529536,NE09027A000,90D4D9CDDFD52FAA,2.01901E+13,1.354315564,103.9450195
NTUC FAIRPRICE CO-OPERATIVE LTD,100,HOUGANG AVENUE 10,1,538767,NE09263B000,57E0B3B56BFE85B9,2.01901E+13,1.371779957,103.8941654
NTUC FAIRPRICE CO-OPERATIVE LTD,1,MAJU AVENUE,14-Nov,556679,NE10310X000,8ED32C743B83D1CB,2.01901E+13,1.36516071,103.8650419
NTUC FAIRPRICE CO-OPERATIVE LTD,612,PUNGGOL DRIVE,6,820612,NE12B79A000,EDD3F8A190365803,2.01901E+13,1.404610028,103.9086656
NTUC FAIRPRICE CO-OPERATIVE LTD,476,UPPER SERANGOON VIEW,18,530476,NE15467C000,5D8CF73D82E2D2D3,2.01901E+13,1.377430064,103.9037129
NTUC FAIRPRICE CO-OPERATIVE LTD,51,TAMPINES AVENUE 4,1,528523,NE16640E000,879B533DDE7D971B,2.01901E+13,1.35349616,103.9396836
U STARS SUPERMARKET PTE. LTD.,878C,TAMPINES AVENUE 8,65,523878,NE17390X000,7B4637BC59034D55,2.01901E+13,1.351264107,103.9293638
NTUC FAIRPRICE CO-OPERATIVE LTD,872C,TAMPINES STREET 86,1,523872,NE17563L000,6FAEE68236789B6D,2.01901E+13,1.355242899,103.9316236
NTUC FAIRPRICE CO-OPERATIVE LTD,681,PUNGGOL DRIVE,1,820681,NE18169P000,CFB223ABC56F4731,2.01901E+13,1.402878451,103.9131957
NTUC FAIRPRICE CO-OPERATIVE LTD,900,SOUTH WOODLANDS DRIVE,1,730900,NW04127A000,6E838EA78CB67267,2.01901E+13,1.435077894,103.7866196
NTUC FAIRPRICE CO-OPERATIVE LTD,511,CANBERRA ROAD,3,750511,NW06546V000,EA43756B63AE5BD2,2.01901E+13,1.453845188,103.8195433
NTUC FAIRPRICE CO-OPERATIVE LTD,355,SEMBAWANG WAY,1,750355,NW07277P000,871279A45CEE1E93,2.01901E+13,1.449566476,103.8186411
NTUC FAIRPRICE CO-OPERATIVE LTD,36,HOLLAND DRIVE,3,270036,NW08477X000,4631ECA22376D5D7,2.01901E+13,1.309182112,103.7925475
SHENG SIONG SUPERMARKET PTE LTD,1,WOODLANDS ROAD,7,677899,NW11767E000,73E590BC99EA9E8D,2.01901E+13,1.380605116,103.7600416
NTUC FAIRPRICE CO-OPERATIVE LTD,570B,WOODLANDS AVENUE 1,6,732570,NW13K05E000,6DC01E96DE9196E5,2.01901E+13,1.43106395,103.7904541
NTUC FAIRPRICE CO-OPERATIVE LTD,17,PETIR ROAD,67,678278,NW17097K000,0F6D2805D151B799,2.01901E+13,1.378349714,103.7627412
CUTECH GREEN VENTURES PTE. LTD.,10,WOODLANDS INDUSTRIAL PARK E1,,757733,NW17699N000,5DC9CF3CF21857D9,2.01901E+13,1.453343622,103.7956824
NTUC FAIRPRICE CO-OPERATIVE LTD,1,NORTHPOINT DRIVE,103,768019,NW17872B000,A507A2041C1E0090,2.01901E+13,1.427999957,103.836142
NTUC FAIRPRICE CO-OPERATIVE LTD,676,WOODLANDS DRIVE 71,2,730676,NW17908L000,80FFC586D66A480E,2.01901E+13,1.439916079,103.8007012
NTUC FAIRPRICE CO-OPERATIVE LTD,29A,GHIM MOH LINK,1,271029,NW18091N000,CB074CE9A66B40A9,2.01901E+13,1.308492885,103.7845981
NTUC FAIRPRICE CO-OPERATIVE LTD,598,YISHUN RING ROAD,1,768698,NW18192E000,43A0261E776070BB,2.01901E+13,1.417999257,103.8412365
SHENG SIONG SUPERMARKET PTE LTD,573,WOODLANDS DRIVE 16,1,730573,NW18778K000,34B968593E51F43C,2.01901E+13,1.431098071,103.7985076
NTUC FAIRPRICE CO-OPERATIVE LTD,510,BISHAN STREET 13,520,570510,S02021B000,D6271526316691C6,2.01901E+13,1.348888439,103.849692
NTUC FAIRPRICE CO-OPERATIVE LTD,9,BISHAN PLACE,20,579837,S02023V000,FA9FA5ABA05A847E,2.01901E+13,1.350239427,103.8484776
NTUC FAIRPRICE CO-OPERATIVE LTD,90,HOUGANG AVENUE 10,7,538766,S02026N000,50B8953758D1012C,2.01901E+13,1.372311865,103.8936616
NTUC FAIRPRICE CO-OPERATIVE LTD,682,HOUGANG AVENUE 4,310,530682,S02027L000,9AF391E828F682EA,2.01901E+13,1.3736183,103.8857489
NTUC FAIRPRICE CO-OPERATIVE LTD,202,HOUGANG STREET 21,0,530202,S02028K000,C2F5E50531DA5597,2.01901E+13,1.357575581,103.8840385
NTUC FAIRPRICE CO-OPERATIVE LTD,1,HOUGANG STREET 91,1,538692,S02029J000,F23F4D1905C24B08,2.01901E+13,1.375667281,103.8794503
NTUC FAIRPRICE CO-OPERATIVE LTD,1,PASIR RIS CENTRAL STREET 3,10,518457,S02034N000,59D794C1E51C56C4,2.01901E+13,1.372449809,103.9497157
NTUC FAIRPRICE CO-OPERATIVE LTD,4,TAMPINES CENTRAL 5,12,529510,S02039C000,CF4061E3C2BB8F61,2.01901E+13,1.35267232,103.944388
NTUC FAIRPRICE CO-OPERATIVE LTD,745,BEDOK RESERVOIR ROAD,3015,470745,S02049A000,06CCD5AEC49398A2,2.01901E+13,1.337404713,103.9217747
SONG FISH DEALER PTE LTD,750,CHAI CHEE ROAD,9,469000,SE16670X000,939FBC8A6B9FFEE4,2.01711E+13,1.323651731,103.922103
U STARS PTE. LTD.,507,YISHUN AVENUE 4,9,760507,NW17212X000,28C4982939CE3342,2.01711E+13,1.415176338,103.8398304
SHENG SIONG SUPERMARKET PTE LTD,88,TANGLIN HALT ROAD,10,141088,CE07783P000,EBA347CA8E4DF407,2.01711E+13,1.302038029,103.7980217
L M MEAT PTE. LTD.,750,CHAI CHEE ROAD,10,469000,SE16607K000,939FBC8A94020BB3,2.01711E+13,1.323651731,103.922103
SHENG SIONG SUPERMARKET PTE LTD,258,PASIR RIS STREET 21,10,510258,NE17023N000,D471C18D5C9A605B,2.01711E+13,1.367000535,103.9646178
OH BENG GUAN,395A,BUKIT BATOK WEST AVENUE 5,10,651395,SW06322N000,3F2FB67F7AEF8F7B,2.01711E+13,1.363938215,103.751896
IROHA INTERNATIONAL PTE. LTD.,133,NEW BRIDGE ROAD,11,59413,CE17F56J000,FC1B4354AC88A2B3,2.01711E+13,1.284998839,103.8446971
COLD STORAGE SINGAPORE (1983) PTE LTD,316B,ANG MO KIO STREET 31,11,563316,CE05096V000,4B8C965EBF10F6E4,2.01711E+13,1.3646254,103.847677
COLD STORAGE SINGAPORE (1983) PTE LTD,1,SELETAR ROAD,11,807011,CE11P32L000,E1D1A8CFFCFF6461,2.01711E+13,1.387395374,103.869136
COLD STORAGE SINGAPORE (1983) PTE LTD,112,EAST COAST ROAD,12,428802,SE11930L000,6ADEFEBC99EB995D,2.01711E+13,1.30523472,103.9050149
CULINA PTE LTD,8,DEMPSEY ROAD,13,247696,CE07411A000,6A804D86ACCD9544,2.01711E+13,1.304175119,103.8095261
COLD STORAGE SINGAPORE (1983) PTE LTD,181,LORONG 4 TOA PAYOH,602,310181,S02057A000,AA62F951DBDE4FDC,2.01711E+13,1.33362232,103.8509779
COLD STORAGE SINGAPORE (1983) PTE LTD,86,REDHILL CLOSE,610,150086,W72014K000,16BAE9E78C33BF64,2.01711E+13,1.286920064,103.8186736
SHENG SIONG SUPERMARKET PTE LTD,209,NEW UPPER CHANGI ROAD,631,460209,SE04069A000,7C2679FDD46A03D2,2.01711E+13,1.324635732,103.9310688
PRIME SUPERMARKET LIMITED,678,WOODLANDS AVENUE 6,716,730678,B02027A000,A3E9F52EA20A4AA4,2.01711E+13,1.439983654,103.8012931
NG TOH TET,442,JURONG WEST AVENUE 1,756,640442,J02016P000,51E44E114D24A291,2.01711E+13,1.351518472,103.7194965
HAO MART PTE. LTD.,120,POTONG PASIR AVENUE 1,812,350120,E85090E000,44AA20183AB0C771,2.01711E+13,1.335453527,103.863388
CHUA & NG PTE. LTD.,632,BEDOK RESERVOIR ROAD,824,470632,NE08405X000,F5F55F22EF14EA1C,2.01711E+13,1.332050946,103.9141451
LOCH GROCER PTE. LTD.,503,JURONG WEST AVENUE 1,847,640503,SW09133X000,EEC186165D0A8166,2.01711E+13,1.34995541,103.7177048
TANESEI TRADING PTE. LTD.,1,VISTA EXCHANGE GREEN,28,138617,SW12J94X000,A0FE8279FB2C316D,2.01711E+13,1.306848827,103.7882145
ARCHANA SUPERMARKET PTE. LTD.,1,JALAN PAPAN,29,619392,SW16856V000,1E09589ACA5444FD,2.01711E+13,1.320484261,103.7267228
COLD STORAGE SINGAPORE (1983) PTE LTD,468B,ADMIRALTY DRIVE,29,752468,NW09437C000,93284ECF02D2C362,2.01711E+13,1.450008612,103.8141109
COLD STORAGE SINGAPORE (1983) PTE LTD,144,UPPER BUKIT TIMAH ROAD,1,588177,C02048E000,85C2936DDD270371,2.01711E+13,1.342392845,103.7762505
COLD STORAGE SINGAPORE (1983) PTE LTD,896,DUNEARN ROAD,1,589472,NW15295X000,F6C9A8232851A10E,2.01711E+13,1.336675729,103.7837092
ISETAN (SINGAPORE) LIMITED?,3,GATEWAY DRIVE,1,608532,SW13W88P000,52762EE4E11C1136,2.01711E+13,1.334025295,103.742586
COLD STORAGE SINGAPORE (1983) PTE LTD,638,JURONG WEST STREET 61,1,640638,SW05008N000,9D4B00D78EE6C414,2.01711E+13,1.341591083,103.6970201
PRIME SUPERMARKET LIMITED,763,JURONG WEST STREET 75,1,640763,J94081B000,42F0880F0319FFF0,2.01711E+13,1.348726433,103.698292
SHENG SIONG SUPERMARKET PTE LTD,154A,BUKIT BATOK WEST AVENUE 8,1,651154,C02033V000,34993015030C6436,2.01711E+13,1.3473718,103.7436981
COLD STORAGE SINGAPORE (1983) PTE LTD,1,BUKIT BATOK CENTRAL LINK,1,658713,C02046K000,3FAA9C0F7EBAE4EB,2.01711E+13,1.350189159,103.749022
TANESEI RETAILING PTE. LTD.,2,TAMPINES CENTRAL 5,6,529509,NE18406E000,7B55F502FCBD4F10,2.01807E+13,1.35236113,103.9437848
LITTLE FARMS PTE. LTD.,7,WALLICH STREET,6,78884,CE16M43E000,5C0DA5EB545D290B,2.01807E+13,1.276724932,103.8451554
MAHOTA FOOD PTE. LTD.,2,TAMPINES CENTRAL 5,7,529509,S02041P000,7B55F5026E1D850C,2.01807E+13,1.35236113,103.9437848
SONG FISH DEALER PTE LTD,2,TAMPINES CENTRAL 5,8,529509,NE18339P000,7B55F5021DC385BD,2.01807E+13,1.35236113,103.9437848
SHENG SIONG SUPERMARKET PTE LTD,25,GHIM MOH LINK,11,270025,SW12M64L000,AF844D2DC3D279A9,2.01807E+13,1.30811887,103.7860494
SHENG SIONG SUPERMARKET PTE LTD,2,ANG MO KIO DRIVE,12,567720,CE12J32X000,0EE1D35E42FAF59A,2.01807E+13,1.377892031,103.856412
ISYMI PTE LTD,183,JALAN PELIKAT,12,537643,NE18066E000,13FEA605430E11A7,2.01807E+13,1.355309033,103.8878572
THE SEAFOOD MARKET PLACE (BY SONG FISH) PTE. LTD.,11,TANJONG KATONG ROAD,15,437157,SE18169X000,5373FE2C2542A82A,2.01807E+13,1.314692141,103.8944805
TOH GUAN MINI MART PTE LTD,19,TOH GUAN ROAD EAST,65,608568,SW06002X000,7D560DE5FBC479E4,2.01711E+13,1.338326579,103.7535361
KADER HASNA MARICAN,17,KIAN TECK LANE,65,627851,J03027B000,48D694F77BDDF3B8,2.01711E+13,1.333145775,103.6952481
"TANG KER AN, TIMOTHY",18,BEDOK SOUTH ROAD,67,460018,SE17401C000,8F06CB553CAC00B7,2.01711E+13,1.320625059,103.9347342
COLD STORAGE SINGAPORE (1983) PTE LTD,256,BANGKIT ROAD,69,670256,B02060V000,5FA77C2D92DF2C69,2.01711E+13,1.379047756,103.7729375
MM SUNDRY SHOP PTE.LTD.,27,WOODLANDS SECTOR 1,70,738252,NW07726J000,0C9F58A0D266482F,2.01711E+13,1.454646548,103.8044767
AL MARCHE PTE LTD,2,MARINA BOULEVARD,5,18987,CE09874X000,0B5E8C0719CDF4FB,2.01711E+13,1.280769443,103.8526586
COLD STORAGE SINGAPORE (1983) PTE LTD,1,FIFTH AVENUE,5,268802,C02024A000,A367F6F11F9F5E4F,2.01711E+13,1.330817402,103.7956924
COLD STORAGE SINGAPORE (1983) PTE LTD,211,HOLLAND AVENUE,5,278967,W02066L000,41A9A338E183E6E0,2.01711E+13,1.310255422,103.7953504
THE ALASKA GUYS PTE. LTD.,201,TELOK KURAU ROAD,5,423910,SE12D97J000,242BE46EFDCB9A13,2.01711E+13,1.312122477,103.911186
COLD STORAGE SINGAPORE (1983) PTE LTD,70,WOODLANDS AVENUE 7,5,738344,NW08020K000,01A592466FEE8456,2.01711E+13,1.440538149,103.8009776
SONG FISH DEALER PTE LTD,930,YISHUN AVENUE 2,5,769098,NW17310P000,CABE56048480C346,2.01711E+13,1.429698482,103.8357765
SHENG SIONG SUPERMARKET PTE LTD,547,SEGAR ROAD,6,670547,NW15186C000,FFADBE6EC613A39A,2.01711E+13,1.388240215,103.7695754
SHENG SIONG SUPERMARKET PTE LTD,473,FERNVALE STREET,6,790473,CE16913J000,D928E5F65E28DEF6,2.01711E+13,1.39779874,103.8816988
COLD STORAGE SINGAPORE (1983) PTE LTD,622D,PUNGGOL CENTRAL,6,824622,NE13M11K000,BF0F0FB5EA7C572A,2.01711E+13,1.400531143,103.9105369
COLD STORAGE SINGAPORE (1983) PTE LTD,26,JALAN MEMBINA,7,161026,CE11C49E000,4B9FC10E8288D387,2.01711E+13,1.282634377,103.8255958
COLD STORAGE SINGAPORE (1983) PTE LTD,4,HILLVIEW RISE,7,667979,SW14542A000,BC39CA3A2186F0FF,2.01711E+13,1.362674503,103.7641729
COLD STORAGE SINGAPORE (1983) PTE LTD,845,GEYLANG ROAD,8,400845,E02048C000,431ADABEDA19B75B,2.01711E+13,1.316544678,103.8942894
TANESEI RETAILING PTE. LTD.,112,EAST COAST ROAD,9,428802,SE11A69V000,6ADEFEBCFB907C4C,2.01711E+13,1.30523472,103.9050149
SHENG SIONG SUPERMARKET PTE LTD,446,FAJAR ROAD,1,670446,NW17421C000,1635D8713E8BB1C0,2.01711E+13,1.384005819,103.7710296
COLD STORAGE SINGAPORE (1983) PTE LTD,475,CHOA CHU KANG AVENUE 3,1,680475,J02010E000,B55F09E3E2D3C583,2.01711E+13,1.378056138,103.7389318
U STARS PTE. LTD.,810,CHOA CHU KANG AVENUE 7,1,680810,SW16D52V000,8B8C2E118EBB3598,2.01711E+13,1.374057967,103.7461601
FORTUNE SUPERMARKET PTE. LTD.,780,WOODLANDS CRESCENT,1,730780,NW15220L000,6C0F13C3F87F6654,2.01711E+13,1.448341542,103.8010572
HAO MART PTE. LTD.,505,CANBERRA LINK,1,750505,NW16763X000,733B18B4ACCAF368,2.01711E+13,1.450262017,103.8225347
U STARS SUPERMARKET PTE. LTD.,218,SUMANG WALK,1,820218,NE16747J000,6801753CCE93D6C0,2.01711E+13,1.40322712,103.895387
SHENG SIONG SUPERMARKET PTE LTD,301,PUNGGOL CENTRAL,1,820301,NE09359K000,368A58B59E61ED3A,2.01711E+13,1.403719394,103.906138
ANG MO SUPERMARKET PTE LTD,639,PUNGGOL DRIVE,1,820639,NE10113B000,744B7E524E86F37A,2.01711E+13,1.399461173,103.9160545
COLD STORAGE SINGAPORE (1983) PTE LTD,671,EDGEFIELD PLAINS,1,820671,NE15611B000,88A54805C5AC09E5,2.01711E+13,1.405660475,103.9119913
SHENG SIONG SUPERMARKET PTE LTD,1,JALAN BERSEH,2,209037,E02140N000,0345D533171F248C,2.01711E+13,1.307785101,103.857011
SWISS BUTCHERY PTE LTD,56,TANGLIN ROAD,2,247964,CE08808B000,D99248D34354E1BE,2.01711E+13,1.305611671,103.8229629
COLD STORAGE SINGAPORE (1983) PTE LTD,501,BUKIT TIMAH ROAD,2,259760,CE06464C000,D1ABF0A0B5C637CE,2.01711E+13,1.322573176,103.8142455
CP MANAGEMENT SERVICES PRIVATE LIMITED,80,TANAH MERAH COAST ROAD,2,498820,SE11799C000,599829D46E4420F1,2.01711E+13,1.326743945,104.0035785
VINAYAK TRADERS PTE. LTD.,27,PENJURU WALK,9-Aug,608538,SW14A33P000,A0432C0990529075,2.01802E+13,1.319238114,103.7328825
TASTE (SINGAPORE) PRIVATE LIMITED,118,HOLLAND AVENUE,10-Jan,278997,CE17174A000,DBF9D2A6796F3D09,2.01802E+13,1.310529787,103.7961052
SHENG SIONG SUPERMARKET PTE LTD,18,YISHUN AVENUE 9,10-Jun,768897,NW16388B000,C02858D0C7FCA12C,2.01802E+13,1.433031981,103.8416008
PRIME SUPERMARKET (1996) PTE LTD,253,CHOA CHU KANG AVENUE 1,10-Jul,680253,J02018L000,46CC84CC4F0D3913,2.01802E+13,1.377439626,103.7443832
CAVEMEN PTE. LTD.,1,JALAN DUSUN,10-Sep,329363,CE17A77E000,F4449940E4C4ABD0,2.01802E+13,1.326965409,103.8436742
COLD STORAGE SINGAPORE (1983) PTE LTD,442,ORCHARD ROAD,11-Jan,238879,CE15577J000,989ED1BC8569B55D,2.01802E+13,1.307668615,103.8281644
COLD STORAGE SINGAPORE (1983) PTE LTD,176,ORCHARD ROAD,11-Sep,238843,W89166E000,17CFC6C924B84529,2.01802E+13,1.301978047,103.8397589
PRIME SUPERMARKET (1996) PTE LTD,50,NANYANG AVENUE,26-Jan,639798,SW15D03B000,1D5749FF4E6AF346,2.01802E+13,1.346764655,103.6788181
COLD STORAGE SINGAPORE (1983) PTE LTD,2,FIRST STREET,16-May,458278,SE13S89V000,30A8716BD32C4F42,2.01802E+13,1.312753299,103.9236579
MOHAMAD DAMAR HULAN BIN OSMAN,212,CHANGI ROAD,,419735,SE12H46E000,91358F6644582728,2.01802E+13,1.317149736,103.9039652
THE FOODSPREE PTE LTD,162,JOO CHIAT ROAD,1,427437,SE17760J000,6B70C98334A7900E,2.01711E+13,1.31290446,103.8997113
HAO MART PTE. LTD.,15,SIGLAP ROAD,1,448912,SE06112L000,B31A9CAEF4BD12EC,2.01711E+13,1.307060675,103.9237697
COLD STORAGE SINGAPORE (1983) PTE LTD,348,BEDOK ROAD,1,469560,E02047E000,4835124FDE1C7B9A,2.01711E+13,1.331426856,103.9482571
SHENG SIONG SUPERMARKET PTE LTD,739A,BEDOK RESERVOIR ROAD,1,471739,S02048B000,40A738BBDE9EE8FA,2.01711E+13,1.338242025,103.9233039
COLD STORAGE SINGAPORE (1983) PTE LTD,440,PASIR RIS DRIVE 4,1,510440,S02033P000,353C727A2E363784,2.01711E+13,1.368998006,103.9586476
SHENG SIONG SUPERMARKET PTE LTD,527D,PASIR RIS STREET 51,1,514527,NE15276N000,C214942E4161701D,2.01711E+13,1.369686248,103.9479224
COLD STORAGE SINGAPORE (1983) PTE LTD,982,BUANGKOK CRESCENT,1,530982,S02185J000,031E40D3FEF38A83,2.01711E+13,1.380850347,103.8793091
L M MEAT PTE. LTD.,10,SINARAN DRIVE,55,307506,CE07T39B000,3FF83B006D88AA4B,2.01807E+13,1.320429679,103.8438921
FISHOP PTE. LTD.,370,ALEXANDRA ROAD,58,159953,CE07B77K000,28E3628D4568AB92,2.01807E+13,1.288614691,103.80501
HONG HENG SENG,5,BANDA STREET,92,50005,W02076J000,6E74948EC7D9ED8B,2.01807E+13,1.281197378,103.8434373
COLD STORAGE SINGAPORE (1983) PTE LTD,2,JURONG EAST STREET 21,100,609601,C02026X000,5667B9EA3683CA7E,2.01807E+13,1.335024304,103.7466382
U STARS SUPERMARKET PTE. LTD.,345,CLEMENTI AVENUE 5,78,120345,C02047J000,01D0EB935D16A631,2.01711E+13,1.317702819,103.7690767
KEK HONG HENG,23,PENJURU WALK,81,608537,SW11512N000,FE19D2BDE3D1F3D8,2.01711E+13,1.318009813,103.7319489
LIM KING CHEW,6,HOUGANG AVENUE 3,82,530006,S02025P000,1A895F32C8AE029B,2.01711E+13,1.362714462,103.8939805
COLD STORAGE SINGAPORE (1983) PTE LTD,80,MARINE PARADE ROAD,84,449269,E02027N000,8F1010F8C89F11EE,2.01711E+13,1.301191315,103.9051136
PRIME SUPERMARKET (1996) PTE LTD,18,BEDOK SOUTH ROAD,87,460018,E75097C000,8F06CB55CF827A37,2.01711E+13,1.320625059,103.9347342
SHENG SIONG SUPERMARKET PTE LTD,18,TECK WHYE LANE,95,680018,SW11423N000,3E77913DDFAFABC6,2.01711E+13,1.378297682,103.7540714
COLD STORAGE SINGAPORE (1983) PTE LTD,118,ALJUNIED AVENUE 2,100,380118,E02045K000,1914E450786226A9,2.01711E+13,1.320000409,103.8873631
SHENG SIONG SUPERMARKET PTE LTD,4,LORONG 7 TOA PAYOH,107,310004,S97079B000,E5C75EE5144F7D35,2.01711E+13,1.339044798,103.8555411
MCP FAIRMART PTE LTD,89,BEDOK NORTH STREET 4,107,460089,SE04109X000,47C2F9061840D0BB,2.01711E+13,1.33233468,103.9380513
ONE EIGHT SHOP PTE. LTD.,104,JURONG EAST STREET 13,110,600104,C02051P000,6AFBF09ADA48B550,2.01711E+13,1.336584653,103.7376233
COLD STORAGE SINGAPORE (1983) PTE LTD,376,BUKIT BATOK STREET 31,116,650376,J02021A000,14691F27403F0437,2.01711E+13,1.358317047,103.7495799
COLD STORAGE SINGAPORE (1983) PTE LTD,509,BEDOK NORTH STREET 3,121,460509,E02033X000,DBC4E5F58BFBC41A,2.01711E+13,1.333066482,103.9310914
HAO MART PTE. LTD.,487B,TAMPINES STREET 45,123,521487,NE16875P000,E3FAC5AE02485B70,2.01711E+13,1.35998567,103.9582477
COLD STORAGE SINGAPORE (1983) PTE LTD,102,YISHUN AVENUE 5,125,760102,NW04014P000,502E558822C8BBB2,2.01711E+13,1.430618285,103.828763
COLD STORAGE SINGAPORE (1983) PTE LTD,8,TELOK BLANGAH CRESCENT,171,90008,W74072X000,4D8CBBA81AEA0B48,2.01711E+13,1.277795394,103.8193413
COLD STORAGE SINGAPORE (1983) PTE LTD,21,GHIM MOH ROAD,177,270021,C79031J000,B6E8BEA1549C78B1,2.01711E+13,1.310081186,103.7885329
PRIME SUPERMARKET LIMITED,159,BUKIT BATOK STREET 11,178,650159,SW04097K000,7CE6D616AAB9E0B8,2.01711E+13,1.348575367,103.7427086
SHENG SIONG SUPERMARKET PTE LTD,845,YISHUN STREET 81,184,760845,B02008E000,F73842A56A4B09A1,2.01711E+13,1.416018798,103.8350008
COLD STORAGE SINGAPORE (1983) PTE LTD,306,UBI AVENUE 1,185,400306,E02030B000,24FC585C5D8DC210,2.01711E+13,1.329872197,103.9019297
ANG MO SUPERMARKET PTE LTD,642,HOUGANG AVENUE 8,197,530642,S93171X000,5FADCA4B621EA5B3,2.01711E+13,1.371703425,103.879939
EN FROZEN PTE LTD,1,GEYLANG SERAI,198,402001,SE11317V000,B550DA1FD304D649,2.01711E+13,1.316725152,103.8979774
LAURELS FOODS SUPPLIERS PTE LTD,2,PANDAN VALLEY,204,597626,C02031B000,BB27373EF4F27873,2.01711E+13,1.320441712,103.7789725
SHENG SIONG SUPERMARKET PTE LTD,925,YISHUN CENTRAL 1,211,760925,B02038P000,D235B3C4A58CE395,2.01711E+13,1.427505479,103.8371253
SHENG SIONG SUPERMARKET PTE LTD,301,WOODLANDS STREET 31,217,730301,B02017C000,64A8DFCD999CAD56,2.01711E+13,1.431505269,103.7735157
TEO BOBBY,253,SERANGOON CENTRAL DRIVE,241,550253,SE05117K000,D114617AB5581E84,2.01711E+13,1.353671028,103.8707568
SHAHUL HAMEED S/O ABDUSALAM,280,TAMPINES STREET 22,244,520280,NE10213X000,8BAE5210234A53DA,2.01711E+13,1.34753519,103.9517028
COLD STORAGE SINGAPORE (1983) PTE LTD,284,BUKIT BATOK EAST AVENUE 3,251,650284,SW07070J000,3652B729F46A939A,2.01711E+13,1.34669905,103.7572767
COLD STORAGE SINGAPORE (1983) PTE LTD,266,SERANGOON CENTRAL DRIVE,255,550266,E02028L000,F3867F9163763643,2.01711E+13,1.353231638,103.8714729
COLD STORAGE SINGAPORE (1983) PTE LTD,56,MARINE TERRACE,259,440056,SE09608P000,8CE628CE4303B82E,2.01711E+13,1.305605703,103.9153761
SHENG SIONG SUPERMARKET PTE LTD,18B,CIRCUIT ROAD,260,372018,SE16233J000,B7D0FE08A8967DDA,2.01711E+13,1.329181056,103.8882484
COLD STORAGE SINGAPORE (1983) PTE LTD,293,YISHUN STREET 22,261,760293,B02039N000,51FA7180CB382D8D,2.01711E+13,1.436114248,103.8376052
PRIME SUPERMARKET (1996) PTE LTD,142,TECK WHYE LANE,281,680142,J02020B000,FF01CED19928BCFB,2.01711E+13,1.380790492,103.7519544
TAN CHUAN BOON,309,HOUGANG AVENUE 5,293,530309,S02031V000,F8DE90AE393B33DE,2.01711E+13,1.366209428,103.8951449
SHENG SIONG SUPERMARKET PTE LTD,108,MCNAIR ROAD,295,321108,CE04558K000,4CC1CB0B8B0201C4,2.01711E+13,1.321619041,103.8593827
PRIME SUPERMARKET LIMITED,962,JURONG WEST STREET 91,300,640962,J02019K000,D51B8945FA526A74,2.01711E+13,1.342017834,103.6914831
MCP FAIRMART PTE LTD,135,JURONG GATEWAY ROAD,317,600135,SW16H72K000,6D7812A14417D165,2.01711E+13,1.333753433,103.7393714
SHENG SIONG SUPERMARKET PTE LTD,115,BEDOK NORTH ROAD,319,460115,E03034J000,E18CE8EB9090BFA4,2.01711E+13,1.331433688,103.9368654
HAO MART PTE. LTD.,74,WHAMPOA DRIVE,332,320074,CE12695A000,8AB069D8BF67D549,2.01711E+13,1.324715806,103.8577529
COLD STORAGE SINGAPORE (1983) PTE LTD,1,COVE AVENUE,,98537,SW12G71E000,C3D5F929E0BF74E9,2.01711E+13,1.247150406,103.839555
COLD STORAGE SINGAPORE (1983) PTE LTD,1,MARITIME SQUARE,,99253,C03010C000,41CC26A55FE32FD1,2.01711E+13,1.262063365,103.8186256
L M MEAT PTE. LTD.,154,WEST COAST ROAD,14,127371,SW13368A000,50EDCA333459AAED,2.01711E+13,1.303582691,103.7652845
U STARS PTE. LTD.,817,KEAT HONG LINK,14,680817,SW17728C000,7BD5B543B421E5B1,2.01711E+13,1.377543843,103.7497
GURU'S MARKETING PTE. LTD.,27,PENJURU WALK,15,608538,SW14A98C000,A0432C09253BE603,2.01711E+13,1.319238114,103.7328825
ISETAN (SINGAPORE) LIMITED?,350,ORCHARD ROAD,0,238868,W02078C000,3C154CA4E781061B,2.01711E+13,1.305809792,103.8315073
SHENG SIONG SUPERMARKET PTE LTD,420A,CLEMENTI AVENUE 1,1,121420,SW12M67E000,DE18128F153BF8DA,2.01711E+13,1.309733314,103.7686373
COLD STORAGE SINGAPORE (1983) PTE LTD,101,CLEMENTI ROAD,1,129787,SW12G70J000,6C94406E7980DE1E,2.01711E+13,1.301761307,103.7693694
SHENG SIONG SUPERMARKET PTE LTD,85,DAWSON ROAD,1,141085,CE15J25N000,0719F41B2685D412,2.01711E+13,1.295319669,103.8097586
COLD STORAGE SINGAPORE (1983) PTE LTD,252,NORTH BRIDGE ROAD,1,179103,W02080P000,8B7EB61131D50013,2.01711E+13,1.293893588,103.8531199
COLD STORAGE SINGAPORE (1983) PTE LTD,391A,ORCHARD ROAD,1,238873,W02071X000,80D12C516AF6A370,2.01711E+13,1.302424179,103.8346761
COLD STORAGE SINGAPORE (1983) PTE LTD,260,KIM KEAT AVENUE,1,310260,S02204N000,E12DD20C880150F2,2.01711E+13,1.332112774,103.8573781
NTUC FAIRPRICE CO-OPERATIVE LTD,170,STIRLING ROAD,1147,140170,W70029L000,083909CF5A11C1D9,2.01901E+13,1.290909183,103.8031076
NTUC FAIRPRICE CO-OPERATIVE LTD,133,NEW BRIDGE ROAD,1,59413,W90084A000,FC1B4354666A9811,2.01901E+13,1.284998839,103.8446971
COLD STORAGE SINGAPORE (1983) PTE LTD,101,THOMSON ROAD,52,307591,W02065N000,65E2947E894C02E6,2.01711E+13,1.317334643,103.8434632
COLD STORAGE SINGAPORE (1983) PTE LTD,21,HOUGANG STREET 51,52,538719,S97166P000,66FF1CEE29C4C715,2.01711E+13,1.379245288,103.887832
TEO BOBBY,29,CHAI CHEE AVENUE,62,460029,E02072C000,A81AA2A3337923E7,2.01711E+13,1.324760407,103.9243702
LOH NYEN YIU,5001,BEACH ROAD,64,199588,W02081N000,635E6A29436D68D7,2.01711E+13,1.302751218,103.8651636
ARCHANA PROVISION STORES PTE. LTD,27,PENJURU WALK,7-Jun,608538,SW15051V000,A0432C0985FCC4C3,2.01802E+13,1.319238114,103.7328825
KINGSMART PTE. LTD.,30,PENJURU PLACE,7-Jun,608557,SW07E27X000,0F6D13BF0DC0EF26,2.01802E+13,1.316210423,103.7325272
AP HOUSE PTE. LTD.,12,MARINA VIEW,8-Jun,18961,CE13Z38L000,C03E4F08E8A27439,2.01802E+13,1.278307303,103.8507952
HAO MART PTE. LTD.,54,BAYSHORE ROAD,8-Jul,469979,SE06125B000,E7685B45E7065C1E,2.01802E+13,1.31179545,103.9368945
COLD STORAGE SINGAPORE (1983) PTE LTD,20,EASTWOOD ROAD,9-Jul,486442,E02026P000,B5DBBE626BDFD653,2.01802E+13,1.321447691,103.9554195
U STARS SUPERMARKET PTE. LTD.,330,ANCHORVALE STREET,1,540330,CE15B61K000,D250CAB12D8D3A0D,2.01711E+13,1.396849794,103.8892468
U STARS SUPERMARKET PTE. LTD.,215C,COMPASSVALE DRIVE,1,543215,NE17098V000,793A9BCB421F13D1,2.01711E+13,1.389770254,103.8927872
PRIME SUPERMARKET (1996) PTE LTD,542B,SERANGOON NORTH AVENUE 3,1,552542,CE12H94B000,ADD3BD299418E130,2.01711E+13,1.373683929,103.871417
SHENG SIONG SUPERMARKET PTE LTD,200,UPPER THOMSON ROAD,1,574424,S02058V000,831F1DF2843B26CE,2.01711E+13,1.351844982,103.8360537
PHAN NEE INVESTMENTS (S) PTE LTD,2C,YISHUN AVENUE 7,3,768930,NW11577N000,0191B775DD3073E5,2.01711E+13,1.44518329,103.8379632
COLD STORAGE SINGAPORE (1983) PTE LTD,201,YISHUN AVENUE 2,3,769092,CE05039P000,80B0CB527C73AAFD,2.01711E+13,1.417383367,103.8329799
GW TRADER PTE. LTD.,8,SELETAR NORTH LINK,3,797455,CE15023A000,C4B92BA307F65241,2.01711E+13,1.418331379,103.8964479
PHANG NEE ENTERPRISE PTE. LTD.,2D,JALAN PAPAN,4,619415,SW09426V000,E648E4A883B5F03D,2.01711E+13,1.320787913,103.7297513
SHENG SIONG SUPERMARKET PTE LTD,312A,SUMANG LINK,4,821312,NE15211C000,B6B14868AA512083,2.01711E+13,1.410819263,103.9003717
FOUR SEASONS ORGANIC MARKET PTE. LTD.,80,MARINE PARADE ROAD,83A,449269,SE10553J000,8F1010F867E6823A,2.01711E+13,1.301191315,103.9051136
THE BUTCHER (SINGAPORE) PTE. LTD.,80,MARINE PARADE ROAD,83B,449269,SE05244V000,8F1010F8F042E045,2.01711E+13,1.301191315,103.9051136
SHENG SIONG SUPERMARKET PTE LTD,352,CLEMENTI AVENUE 2,91&99,120352,SW07331C000,562A45952D810D4C,2.01711E+13,1.314278609,103.7713506
SHENG SIONG SUPERMARKET PTE LTD,544,JURONG WEST STREET 42,97/99,640544,J02009N000,3C89C17544EA684C,2.01711E+13,1.352393576,103.7157595
THNG SAIK MONG,108,CLEMENTI STREET 11,K1,120108,NW06239N000,EC8E203FA856D486,2.01711E+13,1.322123938,103.7702659
HAO MART PTE. LTD.,222,BISHAN STREET 23,K1,570222,CE17A46V000,F48D7D476EB9E37F,2.01711E+13,1.358035243,103.8482085
COLD STORAGE SINGAPORE (1983) PTE LTD,9,TAMPINES STREET 32,30,529286,S02036K000,A5B097A242B8FB73,2.01711E+13,1.354364936,103.9600422
SHENG SIONG SUPERMARKET PTE LTD,200,WOODLANDS INDUSTRIAL PARK E7,30,757177,NW11702X000,41FBB24812E8C6AB,2.01711E+13,1.45074973,103.7968465
MAHOTA FOOD PTE. LTD.,809,FRENCH ROAD,31,200809,CE16445A000,4A222C796326E0C7,2.01711E+13,1.30832701,103.8620059
GURU'S MARKETING PTE. LTD.,1,JALAN PAPAN,31,619392,SW16735N000,1E09589A3EDD3F36,2.01711E+13,1.320484261,103.7267228
VINAYAK TRADERS PTE. LTD.,1,JALAN PAPAN,33,619392,SW16814X000,1E09589A5C0BA14C,2.01711E+13,1.320484261,103.7267228
COLD STORAGE SINGAPORE (1983) PTE LTD,768,WOODLANDS AVENUE 6,34,730768,B02012N000,950F57EF3B788BCD,2.01711E+13,1.445622899,103.798141
CHENNAI TRADING & SUPERMART PTE. LTD.,1,JALAN PAPAN,35,619392,SW16921N000,1E09589A4A78159F,2.01711E+13,1.320484261,103.7267228
AJMAL TRADE MART PTE. LTD.,23,MANDAI ESTATE,21,729937,NW09331A000,F91E53BF15A78A43,2.01711E+13,1.406312045,103.7605617
L M MEAT PTE. LTD.,5,CHANGI BUSINESS PARK CENTRAL 1,23,486038,SE11D22K000,5B8B133D6E6BE963,2.01711E+13,1.334325154,103.9623893
SHENG SIONG SUPERMARKET PTE LTD,27,PENJURU WALK,24,608538,SW14817E000,A0432C09836AEEC5,2.01711E+13,1.319238114,103.7328825
SUN TRG & CON PTE LTD,280,WOODLANDS INDUSTRIAL PARK E5,24,757322,NW17024A000,754CC3103C3CE483,2.01711E+13,1.451325053,103.7910952
SHENG SIONG SUPERMARKET PTE LTD,52,CHIN SWEE ROAD,25,160052,W02332N000,A72765F2B59D66AA,2.01711E+13,1.287082788,103.8415801
COLD STORAGE SINGAPORE (1983) PTE LTD,1,SENGKANG SQUARE,25,545078,NE16363K000,51B8227CD39000F8,2.01711E+13,1.392094149,103.89498
COLD STORAGE SINGAPORE (1983) PTE LTD,604,SEMBAWANG ROAD,25,758459,NW08385B000,3586AEA48D4E8AB7,2.01711E+13,1.441767147,103.8244951
SONG FISH DEALER PTE LTD,133,NEW BRIDGE ROAD,26,59413,CE14938E000,FC1B435462B52865,2.01711E+13,1.284998839,103.8446971
SONG FISH DEALER PTE LTD,1,JURONG WEST CENTRAL 2,26,648886,C99107C000,CB590967FAAD5A27,2.01711E+13,1.339830148,103.7064609
COLD STORAGE SINGAPORE (1983) PTE LTD,259,PASIR RIS STREET 21,27,510259,NE16139A000,652C0F81498EFE84,2.01711E+13,1.366453633,103.9645985
NG CHAI SENG,109,BUKIT PURMEI ROAD,155,90109,W02100V000,8CB56E5DF3589216,2.01807E+13,1.273929408,103.8253108
PRIME SUPERMARKET LIMITED,373,BUKIT BATOK STREET 31,248,650373,J02017N000,E07CF209E7368285,2.01807E+13,1.358946367,103.7503658
ANG KEN CHUA,410,CHOA CHU KANG AVENUE 3,341,680410,J02008P000,BCB1102BA5E932A1,2.01807E+13,1.380627985,103.7415201
HAO MART PTE. LTD.,537,BEDOK NORTH STREET 3,555,460537,E82118V000,5A69B1720FA9BADE,2.01807E+13,1.331773017,103.9242365
COLD STORAGE SINGAPORE (1983) PTE LTD,21,TAMPINES NORTH DRIVE 2,,528765,NE07474A000,B50CCE3157A8E08E,2.01711E+13,1.372101695,103.9319999
SARATHI STORES PTE LTD,91,UPPER PAYA LEBAR ROAD,,534821,SE12F88V000,C3F4B6EEFA4CE889,2.01711E+13,1.337484921,103.8870042
SIVAMANI MINIMART PTE LTD,141,UPPER PAYA LEBAR ROAD,,534846,SE08722A000,A0EB7400D23CF464,2.01711E+13,1.338882304,103.8861093
HAO MART PTE. LTD.,16,JALAN KURAS,,577729,CE12V01C000,03EB061A9288FA03,2.01711E+13,1.373079467,103.8296309
ALTERNATIVE SELECTION PTE. LTD.,29,BINJAI PARK,,589831,NW15264K000,B605DF777DED4788,2.01711E+13,1.336614749,103.7869692
TUAS SOUTH MINIMART PTE. LTD.,6,TUAS SOUTH STREET 15,,636906,SW16126J000,A7FC4EC09A5810FF,2.01711E+13,1.270677123,103.6361448
NPS IMPEX PTE. LTD,21,TUAS VIEW SQUARE,,637640,SW15681P000,BF85D323906DFB81,2.01711E+13,1.298951467,103.6275179
COLD STORAGE SINGAPORE (1983) PTE LTD,492,JURONG WEST STREET 41,,640492,J03056N000,48DBA5323037FB2F,2.01711E+13,1.35011243,103.7245987
SHENG SIONG SUPERMARKET PTE LTD,7,JURONG WEST AVENUE 5,,649486,SW07209E000,C9A2693BECFDA5D3,2.01711E+13,1.348784895,103.7034157
COLD STORAGE SINGAPORE (1983) PTE LTD,464,UPPER BUKIT TIMAH ROAD,,678077,J02011C000,5D6986E9DC48CF0A,2.01711E+13,1.360123706,103.7675424
GOWRI'S GLOBAL MARKETING PTE. LTD.,460,MANDAI ROAD,,729760,NW16252K000,CE26C864CF610B86,2.01711E+13,1.410722194,103.768396
BALASUBRAMANIYAN KANNADASAN,257,KRANJI ROAD,,739503,J87134E000,46C1FE5A7CAF6D6F,2.01711E+13,1.435945359,103.7540084
AJMAL TRADE MART PTE. LTD.,12,KRANJI ROAD,,739522,SW12L48X000,766E1053F78FFEA2,2.01711E+13,1.430693589,103.7592373
DE ESPERTO MINIMART PTE. LTD.,190,WOODLANDS INDUSTRIAL PARK E7,,757178,NW14006E000,CAAEE3DF101963D5,2.01711E+13,1.451220636,103.7978534
PHAN NEE TRADING LLP,49,ADMIRALTY ROAD WEST,,757444,NW10192C000,44EE12AC694A7E17,2.01711E+13,1.461388538,103.8181113
BANGLADESH SUPER MARKET PTE. LTD.,1024,SEMBAWANG ROAD,,758498,B90051N000,F9262E9E10517BDA,2.01711E+13,1.453436934,103.8325264
LABIBA ENTERPRISE PTE. LTD.,249,JALAN KAYU,,799473,CE13S05E000,0FF35EE831AAA4C4,2.01711E+13,1.396574156,103.8728516
COLD STORAGE SINGAPORE (1983) PTE LTD,266,COMPASSVALE BOW,2,540266,NE06429X000,F586BB6B62A2AA32,2.01711E+13,1.381997031,103.8970311
SHAFEN SUPERMARKET & TRADING (S) PTE. LTD.,18,TOH GUAN ROAD EAST,2,608596,SW14017K000,0D089981EC38DB77,2.01711E+13,1.336417981,103.7518074
YS LOGISTICS (S) PTE. LTD.,15,JALAN TEPONG,2,619336,SW11146X000,FDA05FF8FFD2C675,2.01711E+13,1.308593461,103.7223168
MALAR MARKETING PTE. LTD.,69,TUAS SOUTH AVENUE 1,2,637589,SW16H70N000,90E60A52E1DD0ABA,2.01711E+13,1.313358097,103.627437
SADIA SUPERMARKET & TRADING (S) PTE. LTD.,14,TECH PARK CRESCENT,2,638118,SW09288C000,564FD14BF0EB5941,2.01711E+13,1.310694285,103.63019
GOWRI'S GLOBAL MARKETING PTE. LTD.,555,UPPER JURONG ROAD,2,638368,SW08907C000,465BF71AEF1EEEFE,2.01711E+13,1.328886006,103.67713
KAVI TRADERS PTE. LTD.,69R,TUAS SOUTH AVENUE 1,2,639926,SW16B85N000,B6C09A2129D8FC7C,2.01711E+13,1.313322351,103.627917
BISMILLAH MINIMART PTE. LTD.,32,MANDAI ESTATE,2,729939,NW13J23J000,A00ABF469A50CFF3,2.01711E+13,1.407543241,103.758095
FORTUNE SUPERMARKET PTE. LTD.,463,SEMBAWANG DRIVE,2,750463,NW14040B000,87854E986E0B5C5E,2.01711E+13,1.455512083,103.8145403
COLD STORAGE SINGAPORE (1983) PTE LTD,406A,SEMBAWANG DRIVE,2,751406,NW07636K000,5C066E2789C353CC,2.01711E+13,1.452736234,103.8172493
PRIME SUPERMARKET LIMITED,108,PUNGGOL FIELD,2,820108,S02127E000,4AC985587C816F4A,2.01711E+13,1.396526176,103.9088508
U STARS SUPERMARKET PTE. LTD.,261,PUNGGOL WAY,2,820261,NE15440C000,7B4B5C95D3ED11FA,2.01711E+13,1.405413536,103.8968239
COLD STORAGE SINGAPORE (1983) PTE LTD,445,FAJAR ROAD,536,670445,B02026B000,45F42DD3A860C6BA,2.01711E+13,1.383580444,103.7707683
HAO MART PTE. LTD.,205,PETIR ROAD,595,670205,NW16634L000,CF928B697551C00C,2.01711E+13,1.373430253,103.7739241
PRIME SUPERMARKET (1996) PTE LTD,761,YISHUN STREET 72,348,760761,NW12G73N000,0FC68D1ED5B6C2A3,2.01711E+13,1.425398421,103.833259
SHENG SIONG SUPERMARKET PTE LTD,506,TAMPINES CENTRAL 1,361,520506,NE15002X000,7E58C2015549FAEF,2.01711E+13,1.355902185,103.9459122
COLD STORAGE SINGAPORE (1983) PTE LTD,776,PASIR RIS STREET 71,412,510776,NE09314N000,71E21A9890A079BB,2.01711E+13,1.374549287,103.9370882
COLD STORAGE SINGAPORE (1983) PTE LTD,418,YISHUN AVENUE 11,433,760418,B92077A000,34226FE728376EE8,2.01711E+13,1.424899318,103.8472498
PRIME SUPERMARKET LIMITED,25A,CHAI CHEE ROAD,459,461025,E02041X000,114811BB1E2E901E,2.01711E+13,1.323289602,103.9241496
SHENG SIONG SUPERMARKET PTE LTD,539A,BEDOK NORTH STREET 3,477,461539,E02032V000,08CE3D61110B19D9,2.01711E+13,1.332402302,103.9255006
HAO MART PTE. LTD.,69,BEDOK SOUTH AVENUE 3,484,460069,SE17500A000,4F5E8E47A4AFCD1D,2.01711E+13,1.319350273,103.9436324
PRIME SUPERMARKET (1996) PTE LTD,159A,HOUGANG STREET 11,1,531159,NE11529V000,1D6427DE409FCC21,2.01711E+13,1.352090599,103.8793146
PRIME SUPERMARKET LIMITED,263,COMPASSVALE STREET,1,540263,S02151E000,16D3D8D8781C3AA1,2.01711E+13,1.394848156,103.8960423
COLD STORAGE SINGAPORE (1983) PTE LTD,883,WOODLANDS STREET 82,498,730883,B02037X000,65D584E6DDA523B4,2.01711E+13,1.442753322,103.790548
COLD STORAGE SINGAPORE (1983) PTE LTD,161,ANG MO KIO AVENUE 4,504,560161,B02032E000,1A2E9C2F8BA35161,2.01711E+13,1.374239507,103.8394892
COLD STORAGE SINGAPORE (1983) PTE LTD,2,JALAN LOKAM,37,537846,SE16595E000,F55DE3E2B0C981EB,2.01711E+13,1.345607714,103.8826959
D-RON INVESTMENTS PTE. LTD.,2,SELETAR NORTH LINK,38,797601,CE15042P000,99B1CAC4470C0901,2.01711E+13,1.416907801,103.8960188
AJMAL SUPER MART PTE. LTD.,70,TUAS SOUTH AVENUE 1,40,637285,SW14718K000,7AE8237F6DEE15C5,2.01711E+13,1.31396452,103.6257647
COLD STORAGE SINGAPORE (1983) PTE LTD,1,CLAYMORE DRIVE,41,229594,W02079B000,C020C5160253E34C,2.01711E+13,1.307562373,103.8293522
SONG FISH DEALER PTE LTD,50,JURONG GATEWAY ROAD,43,608549,SW17592A000,469AAB3D59153DDD,2.01711E+13,1.333200217,103.7431704
COLD STORAGE SINGAPORE (1983) PTE LTD,36A,DUNEARN ROAD,44,309426,W02064P000,C32AAAC86C761735,2.01711E+13,1.316177425,103.837815
COLD STORAGE SINGAPORE (1983) PTE LTD,2,BAYFRONT AVENUE,46,18972,CE10K82J000,80E8DB7463423070,2.01711E+13,1.283558725,103.8585057
NG LIAN TEE,7,GREENDALE AVENUE,,289504,CE09902A000,7991DC603EB83F20,2.01711E+13,1.331664776,103.8070338
TAN PAK NANG,387,UPPER ALJUNIED ROAD,,367872,SE06465L000,CB2A311170E71520,2.01711E+13,1.33312324,103.8788419
HAO MART PTE. LTD.,32,LORONG 11 GEYLANG,,388724,CE11B47P000,D113286CD6E8F21B,2.01711E+13,1.313469039,103.8770048
PRB TRADING PTE. LTD.,230,GEYLANG ROAD,,389290,CE10085L000,47B5BCB1D7C168C0,2.01711E+13,1.312088771,103.8773893
SHENG SIONG SUPERMARKET PTE LTD,301,GEYLANG ROAD,,389344,CE12546B000,868F8528944D1318,2.01711E+13,1.312720553,103.8786415
I-TEC SUPERMART PTE LTD,498/500,GEYLANG ROAD,,389456,SE11136C000,D5C385FAFF980C92,2.01711E+13,1.313288615,103.8851532
YEO HOCK HENG,5,ALJUNIED ROAD,,389797,CE09744N000,687629A701062EF9,2.01711E+13,1.313576054,103.8818778
AZ SUPERMART PTE. LTD.,21,KAKI BUKIT AVENUE 3,,415920,NE04109P000,C4A6B8EB14A3DC3E,2.01711E+13,1.338096739,103.9099467
FOODIE MARKET PLACE PTE. LTD.,313,TANJONG KATONG ROAD,,437096,SE15043B000,975B484B749941AD,2.01711E+13,1.306086368,103.8961496
ZAC MEAT & POULTRY PTE LTD,1B,FIGARO STREET,,458322,SE14C27C000,43ECB768EBA21B32,2.01711E+13,1.315749333,103.925857
